{
"type": "FeatureCollection",
"name": "active_region",
"crs": { "type": "name", "properties": { "name": "urn:ogc:def:crs:EPSG::3346" } },
"xy_coordinate_resolution": 0.001,
"features": [
{ "type": "Feature", "properties": { }, "geometry": { "type": "Polygon", "coordinates": [ [ [ 325000.0, 6100000.0 ], [ 325000.0, 6118736.799 ], [ 324967.299, 6118696.81 ], [ 324842.85, 6118569.611 ], [ 324785.631, 6118516.111 ], [ 324627.628, 6118382.986 ], [ 324456.735, 6118266.873 ], [ 324274.774, 6118169.01 ], [ 324083.688, 6118090.441 ], [ 323885.516, 6118032.005 ], [ 323810.359, 6118014.005 ], [ 323621.627, 6117978.289 ], [ 323430.339, 6117960.842 ], [ 323238.259, 6117961.825 ], [ 323047.159, 6117981.231 ], [ 322987.319, 6117993.192 ], [ 322994.247, 6117951.826 ], [ 323004.966, 6117862.326 ], [ 323019.032, 6117646.805 ], [ 323009.776, 6117431.025 ], [ 322977.306, 6117217.501 ], [ 322959.431, 6117131.501 ], [ 322920.525, 6116975.915 ], [ 322916.162, 6116961.03 ], [ 322921.425, 6116942.523 ], [ 322943.013, 6116859.946 ], [ 322960.919, 6116784.946 ], [ 322997.789, 6116586.775 ], [ 323014.524, 6116385.898 ], [ 323010.955, 6116184.357 ], [ 322987.117, 6115984.2 ], [ 322967.562, 6115896.495 ], [ 322959.41, 6115793.251 ], [ 322925.159, 6115605.754 ], [ 322926.376, 6115596.662 ], [ 322942.31, 6115414.465 ], [ 322941.533, 6115231.574 ], [ 322926.139, 6115071.24 ], [ 322966.48, 6114910.041 ], [ 322971.343, 6114890.178 ], [ 323032.156, 6114636.178 ], [ 323043.742, 6114574.699 ], [ 323056.321, 6114550.86 ], [ 323143.083, 6114363.621 ], [ 323210.088, 6114168.439 ], [ 323222.179, 6114116.206 ], [ 323249.018, 6114037.882 ], [ 323294.776, 6113842.038 ], [ 323309.089, 6113763.038 ], [ 323339.835, 6113478.329 ], [ 323341.905, 6113420.723 ], [ 323348.368, 6113395.096 ], [ 323384.287, 6113220.027 ], [ 323404.434, 6113042.45 ], [ 323408.648, 6112863.783 ], [ 323396.896, 6112685.454 ], [ 323389.74, 6112620.954 ], [ 323365.864, 6112476.794 ], [ 323377.777, 6112448.062 ], [ 323434.752, 6112260.573 ], [ 323449.065, 6112203.573 ], [ 323488.896, 6112001.322 ], [ 323498.528, 6111896.164 ], [ 323538.316, 6111776.55 ], [ 323580.595, 6111593.736 ], [ 323594.908, 6111515.236 ], [ 323620.645, 6111320.055 ], [ 323622.467, 6111264.239 ], [ 323647.669, 6111163.387 ], [ 323674.965, 6110992.324 ], [ 323696.434, 6110806.324 ], [ 323708.159, 6110653.557 ], [ 323711.722, 6110560.557 ], [ 323713.188, 6110484.0 ], [ 323713.188, 6110398.0 ], [ 323711.293, 6110321.92 ], [ 323718.853, 6110126.195 ], [ 323720.344, 6110049.0 ], [ 323720.344, 6109906.842 ], [ 323727.129, 6109828.857 ], [ 323734.235, 6109696.563 ], [ 323737.828, 6109521.563 ], [ 323736.36, 6109459.911 ], [ 323761.373, 6109333.612 ], [ 323768.529, 6109283.112 ], [ 323784.115, 6109095.32 ], [ 323809.702, 6108984.978 ], [ 323823.983, 6108906.478 ], [ 323848.19, 6108728.216 ], [ 323856.281, 6108548.5 ], [ 323856.281, 6108423.0 ], [ 323845.056, 6108211.397 ], [ 323840.429, 6108167.912 ], [ 323834.68, 6108016.927 ], [ 323857.23, 6107902.261 ], [ 323876.006, 6107700.003 ], [ 323879.6, 6107614.003 ], [ 323874.981, 6107371.093 ], [ 323867.825, 6107281.593 ], [ 323852.173, 6107155.32 ], [ 323852.378, 6107152.411 ], [ 323853.753, 6107077.943 ], [ 323875.001, 6107013.613 ], [ 323916.171, 6106836.086 ], [ 323941.01, 6106655.549 ], [ 323949.312, 6106473.5 ], [ 323949.312, 6106398.5 ], [ 323940.964, 6106276.607 ], [ 323952.305, 6106124.244 ], [ 323955.899, 6105973.744 ], [ 323945.693, 6105718.668 ], [ 323927.818, 6105547.168 ], [ 323923.15, 6105506.431 ], [ 323913.531, 6105429.485 ], [ 323913.531, 6105316.0 ], [ 323912.245, 6105267.089 ], [ 323945.688, 6105116.82 ], [ 323959.386, 6105031.162 ], [ 324006.887, 6104904.487 ], [ 324052.044, 6104744.946 ], [ 324069.95, 6104669.946 ], [ 324092.84, 6104541.063 ], [ 324127.012, 6104463.392 ], [ 324194.51, 6104288.053 ], [ 324245.256, 6104107.154 ], [ 324278.804, 6103922.291 ], [ 324294.857, 6103735.096 ], [ 324294.736, 6103720.722 ], [ 324314.275, 6103642.43 ], [ 324328.587, 6103574.43 ], [ 324364.64, 6103327.632 ], [ 324368.202, 6103284.632 ], [ 324374.962, 6103102.912 ], [ 324365.189, 6102921.328 ], [ 324363.661, 6102910.844 ], [ 324367.842, 6102830.444 ], [ 324360.354, 6102645.713 ], [ 324342.466, 6102512.004 ], [ 324342.887, 6102508.093 ], [ 324342.988, 6102506.392 ], [ 324353.916, 6102414.384 ], [ 324360.482, 6102350.302 ], [ 324374.795, 6102184.302 ], [ 324380.84, 6101939.096 ], [ 324377.278, 6101842.096 ], [ 324361.048, 6101650.924 ], [ 324326.574, 6101462.186 ], [ 324306.204, 6101390.436 ], [ 324288.757, 6101246.826 ], [ 324245.248, 6101052.655 ], [ 324198.717, 6100884.655 ], [ 324160.728, 6100770.505 ], [ 324202.591, 6100686.919 ], [ 324231.124, 6100613.853 ], [ 324268.469, 6100576.744 ], [ 324314.969, 6100526.244 ], [ 324442.599, 6100372.95 ], [ 324554.324, 6100207.705 ], [ 324649.034, 6100032.153 ], [ 324725.786, 6099848.04 ], [ 324783.816, 6099657.198 ], [ 324822.547, 6099461.524 ], [ 324824.165, 6099444.663 ], [ 324945.615, 6099286.09 ], [ 324999.271, 6099207.59 ], [ 325121.637, 6099003.476 ], [ 325218.891, 6098786.273 ], [ 325268.985, 6098653.773 ], [ 325329.264, 6098467.14 ], [ 325370.973, 6098275.5 ], [ 325393.711, 6098080.697 ], [ 325397.261, 6097884.603 ], [ 325381.586, 6097689.105 ], [ 325371.756, 6097634.495 ], [ 325428.611, 6097493.371 ], [ 325450.421, 6097436.774 ], [ 325514.827, 6097261.774 ], [ 325550.776, 6097154.89 ], [ 325615.183, 6096943.89 ], [ 325642.929, 6096843.744 ], [ 325664.366, 6096757.744 ], [ 325702.687, 6096563.494 ], [ 325737.796, 6096323.498 ], [ 325753.197, 6096268.585 ], [ 325797.416, 6096074.089 ], [ 325822.042, 6095876.156 ], [ 325843.511, 6095586.156 ], [ 325848.969, 6095438.5 ], [ 325848.969, 6095324.344 ], [ 325851.357, 6095215.011 ], [ 325853.081, 6095183.797 ], [ 325856.125, 6095073.5 ], [ 325856.125, 6094906.461 ], [ 325858.937, 6094805.912 ], [ 325855.824, 6094625.243 ], [ 325848.783, 6094512.587 ], [ 325834.582, 6094278.43 ], [ 325809.05, 6094058.99 ], [ 325759.472, 6093843.705 ], [ 325727.188, 6093732.112 ], [ 325720.293, 6093650.211 ], [ 325699.309, 6093484.301 ], [ 325664.537, 6093320.725 ], [ 325616.221, 6093160.625 ], [ 325581.659, 6093061.314 ], [ 325546.142, 6092930.913 ], [ 325476.882, 6092722.505 ], [ 325385.189, 6092522.948 ], [ 325272.169, 6092334.648 ], [ 325223.904, 6092263.414 ], [ 325153.199, 6092140.534 ], [ 325048.616, 6091977.573 ], [ 324969.897, 6091867.073 ], [ 324811.017, 6091671.419 ], [ 324678.642, 6091527.919 ], [ 324552.201, 6091402.541 ], [ 324454.795, 6091314.199 ], [ 324374.069, 6091228.931 ], [ 324349.606, 6091201.476 ], [ 324334.815, 6091180.646 ], [ 324302.802, 6091113.71 ], [ 324182.462, 6090921.563 ], [ 324094.329, 6090810.991 ], [ 324093.919, 6090810.241 ], [ 324004.82, 6090662.806 ], [ 323903.364, 6090523.586 ], [ 323790.304, 6090393.613 ], [ 323666.479, 6090273.851 ], [ 323573.479, 6090191.351 ], [ 323410.793, 6090061.511 ], [ 323257.192, 6089963.175 ], [ 323216.293, 6089908.729 ], [ 323059.792, 6089743.453 ], [ 322955.708, 6089645.369 ], [ 322822.583, 6089488.202 ], [ 322754.583, 6089416.702 ], [ 322624.096, 6089291.373 ], [ 322481.002, 6089165.873 ], [ 322339.789, 6089052.898 ], [ 322188.948, 6088953.14 ], [ 322099.51, 6088899.64 ], [ 321911.963, 6088800.559 ], [ 321714.977, 6088721.897 ], [ 321591.097, 6088679.898 ], [ 321487.905, 6088639.448 ], [ 321244.478, 6088561.567 ], [ 321122.853, 6088531.067 ], [ 320950.049, 6088495.751 ], [ 320774.805, 6088475.796 ], [ 320598.484, 6088471.359 ], [ 320387.39, 6088475.359 ], [ 320334.355, 6088477.068 ], [ 320205.186, 6088482.946 ], [ 320172.71, 6088483.622 ], [ 320053.092, 6088454.278 ], [ 319941.284, 6088424.759 ], [ 319760.014, 6088385.79 ], [ 319631.201, 6088364.29 ], [ 319362.117, 6088337.906 ], [ 319178.152, 6088332.368 ], [ 319087.058, 6088325.186 ], [ 318959.975, 6088319.227 ], [ 318818.711, 6088317.1 ], [ 318773.536, 6088312.282 ], [ 318588.963, 6088301.19 ], [ 318334.963, 6088297.69 ], [ 318270.237, 6088299.647 ], [ 318194.913, 6088276.825 ], [ 318182.394, 6088274.151 ], [ 317932.882, 6088162.762 ], [ 317902.345, 6088151.64 ], [ 317857.748, 6088130.515 ], [ 317740.262, 6088079.407 ], [ 317600.896, 6088024.018 ], [ 317556.324, 6088001.116 ], [ 317520.272, 6087982.489 ], [ 317502.154, 6087970.955 ], [ 317374.937, 6087882.409 ], [ 317260.253, 6087799.59 ], [ 317060.901, 6087672.836 ], [ 316907.057, 6087587.336 ], [ 316851.339, 6087557.513 ], [ 316726.12, 6087493.013 ], [ 316531.341, 6087405.505 ], [ 316328.342, 6087339.262 ], [ 316119.438, 6087295.039 ], [ 315907.01, 6087273.34 ], [ 315693.479, 6087274.414 ], [ 315621.266, 6087278.638 ], [ 315552.764, 6087277.042 ], [ 315400.575, 6087279.29 ], [ 315304.404, 6087284.376 ], [ 315300.764, 6087275.252 ], [ 315201.977, 6087087.991 ], [ 315083.946, 6086912.221 ], [ 315008.821, 6086812.221 ], [ 314897.486, 6086676.812 ], [ 314774.721, 6086551.673 ], [ 314641.47, 6086437.764 ], [ 314638.112, 6086435.139 ], [ 314515.862, 6086298.291 ], [ 314379.873, 6086171.902 ], [ 314232.749, 6086058.668 ], [ 314075.759, 6085959.564 ], [ 313910.256, 6085875.444 ], [ 313831.569, 6085839.944 ], [ 313661.33, 6085772.342 ], [ 313546.83, 6085732.842 ], [ 313360.632, 6085678.556 ], [ 313170.051, 6085642.56 ], [ 312976.881, 6085625.193 ], [ 312782.936, 6085626.619 ], [ 312657.748, 6085633.619 ], [ 312462.488, 6085654.19 ], [ 312270.186, 6085693.807 ], [ 312082.694, 6085752.089 ], [ 311901.821, 6085828.474 ], [ 311729.31, 6085922.226 ], [ 311629.122, 6085983.226 ], [ 311447.285, 6086108.188 ], [ 311345.972, 6086195.705 ], [ 311320.044, 6086183.072 ], [ 311137.214, 6086104.979 ], [ 310947.534, 6086045.424 ], [ 310752.878, 6086004.995 ], [ 310567.862, 6085985.434 ], [ 310551.108, 6085979.254 ], [ 310356.964, 6085929.041 ], [ 310158.768, 6085898.523 ], [ 310090.8, 6085891.523 ], [ 309904.737, 6085881.089 ], [ 309718.51, 6085888.018 ], [ 309533.737, 6085912.25 ], [ 309352.021, 6085953.575 ], [ 309263.515, 6085982.594 ], [ 309185.128, 6085993.512 ], [ 308989.623, 6086041.159 ], [ 308799.896, 6086108.211 ], [ 308739.084, 6086133.211 ], [ 308569.83, 6086212.222 ], [ 308470.437, 6086270.482 ], [ 308343.854, 6086226.838 ], [ 308137.27, 6086179.342 ], [ 308023.264, 6086159.424 ], [ 307981.507, 6086138.947 ], [ 307801.077, 6086071.133 ], [ 307614.957, 6086021.002 ], [ 307532.488, 6086003.002 ], [ 307348.069, 6085971.703 ], [ 307161.532, 6085957.771 ], [ 306974.509, 6085961.327 ], [ 306788.637, 6085982.34 ], [ 306605.541, 6086020.627 ], [ 306426.822, 6086075.852 ], [ 306254.045, 6086147.533 ], [ 306231.411, 6086159.513 ], [ 306124.977, 6086184.334 ], [ 305942.865, 6086245.744 ], [ 305767.489, 6086324.35 ], [ 305750.538, 6086333.999 ], [ 305701.049, 6086329.713 ], [ 305521.144, 6086330.36 ], [ 305342.025, 6086347.171 ], [ 305238.056, 6086361.671 ], [ 304976.946, 6086416.043 ], [ 304887.321, 6086441.043 ], [ 304705.509, 6086501.279 ], [ 304530.292, 6086578.63 ], [ 304363.277, 6086672.387 ], [ 304209.833, 6086779.024 ], [ 304070.174, 6086774.811 ], [ 303879.5, 6086787.303 ], [ 303690.888, 6086817.934 ], [ 303506.061, 6086866.426 ], [ 303326.705, 6086932.334 ], [ 303154.457, 6087015.058 ], [ 303068.426, 6087061.558 ], [ 302943.308, 6087137.556 ], [ 302887.863, 6087120.331 ], [ 302704.373, 6087081.715 ], [ 302518.072, 6087060.453 ], [ 302330.599, 6087056.732 ], [ 302143.601, 6087070.584 ], [ 301958.723, 6087101.888 ], [ 301901.379, 6087114.388 ], [ 301754.7, 6087152.761 ], [ 301654.344, 6087165.217 ], [ 301435.686, 6087217.796 ], [ 301224.313, 6087294.592 ], [ 301174.125, 6087316.092 ], [ 301051.369, 6087375.987 ], [ 300892.05, 6087427.348 ], [ 300748.08, 6087490.157 ], [ 300743.319, 6087487.341 ], [ 300557.665, 6087401.763 ], [ 300364.245, 6087335.583 ], [ 300165.08, 6087289.494 ], [ 299962.251, 6087263.977 ], [ 299757.876, 6087259.297 ], [ 299554.091, 6087275.505 ], [ 299353.026, 6087312.431 ], [ 299156.78, 6087369.688 ], [ 299019.12, 6087425.654 ], [ 298939.342, 6087430.105 ], [ 298759.072, 6087448.383 ], [ 298581.196, 6087482.901 ], [ 298407.175, 6087533.376 ], [ 298238.435, 6087599.394 ], [ 298076.363, 6087680.412 ], [ 297986.738, 6087730.412 ], [ 297943.845, 6087755.041 ], [ 297882.907, 6087791.041 ], [ 297721.739, 6087897.061 ], [ 297596.27, 6087988.561 ], [ 297422.564, 6088130.839 ], [ 297337.47, 6088218.208 ], [ 297232.646, 6088285.245 ], [ 297072.852, 6088412.111 ], [ 296926.815, 6088554.597 ], [ 296883.784, 6088601.097 ], [ 296732.617, 6088785.358 ], [ 296604.442, 6088986.293 ], [ 296550.692, 6089082.793 ], [ 296460.947, 6089265.594 ], [ 296457.038, 6089271.64 ], [ 296447.03, 6089287.279 ], [ 296425.12, 6089321.867 ], [ 296391.352, 6089366.205 ], [ 296369.857, 6089396.344 ], [ 296292.987, 6089443.977 ], [ 296146.72, 6089554.341 ], [ 296011.167, 6089677.628 ], [ 295939.448, 6089749.128 ], [ 295809.164, 6089892.237 ], [ 295693.321, 6090047.268 ], [ 295593.005, 6090212.769 ], [ 295546.412, 6090298.769 ], [ 295452.203, 6090498.179 ], [ 295380.524, 6090706.75 ], [ 295341.059, 6090882.659 ], [ 295277.04, 6090967.417 ], [ 295166.308, 6091152.581 ], [ 295090.404, 6091317.632 ], [ 294991.812, 6091412.954 ], [ 294912.968, 6091498.954 ], [ 294825.893, 6091600.556 ], [ 294739.83, 6091708.056 ], [ 294716.954, 6091739.652 ], [ 294597.707, 6091792.816 ], [ 294453.494, 6091864.197 ], [ 294315.487, 6091946.941 ], [ 294003.581, 6092151.441 ], [ 293830.257, 6092278.918 ], [ 293629.507, 6092443.918 ], [ 293506.671, 6092553.66 ], [ 293487.367, 6092574.0 ], [ 293361.173, 6092542.061 ], [ 293307.391, 6092531.561 ], [ 293140.185, 6092506.201 ], [ 293133.298, 6092505.747 ], [ 293070.794, 6092450.653 ], [ 293068.844, 6092448.936 ], [ 292832.25, 6092240.936 ], [ 292724.251, 6092152.476 ], [ 292616.688, 6092070.476 ], [ 292430.994, 6091944.724 ], [ 292232.388, 6091840.552 ], [ 292141.393, 6091799.153 ], [ 292012.655, 6091730.089 ], [ 291813.126, 6091636.812 ], [ 291604.55, 6091566.042 ], [ 291450.393, 6091523.042 ], [ 291285.806, 6091484.547 ], [ 291118.556, 6091460.088 ], [ 291047.18, 6091452.714 ], [ 290994.87, 6091440.706 ], [ 290782.147, 6091403.827 ], [ 290663.42, 6091389.793 ], [ 290554.017, 6091366.36 ], [ 290544.637, 6091364.374 ], [ 290372.544, 6091328.374 ], [ 290173.294, 6091297.083 ], [ 289971.906, 6091286.02 ], [ 289770.428, 6091295.296 ], [ 289570.909, 6091324.817 ], [ 289569.6, 6091325.078 ], [ 289515.354, 6091315.752 ], [ 289295.535, 6091302.525 ], [ 289075.594, 6091313.546 ], [ 288942.938, 6091327.546 ], [ 288748.911, 6091357.715 ], [ 288611.353, 6091393.202 ], [ 288566.716, 6091385.279 ], [ 288392.628, 6091362.21 ], [ 288217.188, 6091354.5 ], [ 288088.125, 6091354.5 ], [ 287904.077, 6091362.986 ], [ 287721.591, 6091388.374 ], [ 287542.216, 6091430.446 ], [ 287367.473, 6091488.847 ], [ 287198.846, 6091563.081 ], [ 287076.971, 6091623.581 ], [ 286877.44, 6091737.355 ], [ 286692.27, 6091873.256 ], [ 286606.819, 6091943.866 ], [ 286598.946, 6091949.432 ], [ 286568.134, 6091945.047 ], [ 286345.853, 6091925.047 ], [ 286130.232, 6091917.331 ], [ 285915.034, 6091932.888 ], [ 285717.877, 6091957.888 ], [ 285519.723, 6091993.224 ], [ 285326.123, 6092048.298 ], [ 285139.04, 6092122.553 ], [ 285020.727, 6092176.553 ], [ 284956.322, 6092207.349 ], [ 284913.99, 6092228.527 ], [ 284896.267, 6092234.539 ], [ 284735.907, 6092287.016 ], [ 284572.083, 6092315.091 ], [ 284405.645, 6092358.614 ], [ 284243.564, 6092416.279 ], [ 284193.691, 6092436.479 ], [ 284143.292, 6092435.431 ], [ 284127.105, 6092435.161 ], [ 284008.792, 6092433.661 ], [ 283814.258, 6092440.668 ], [ 283621.327, 6092466.554 ], [ 283431.826, 6092511.073 ], [ 283372.212, 6092531.367 ], [ 283188.302, 6092488.369 ], [ 282997.574, 6092463.852 ], [ 282966.624, 6092440.15 ], [ 282909.249, 6092400.65 ], [ 282744.309, 6092298.52 ], [ 282570.251, 6092212.85 ], [ 282388.711, 6092144.448 ], [ 282201.399, 6092093.955 ], [ 282061.586, 6092063.455 ], [ 281874.696, 6092031.878 ], [ 281685.656, 6092018.134 ], [ 281496.165, 6092022.346 ], [ 281288.258, 6092036.846 ], [ 281127.93, 6092054.549 ], [ 280969.55, 6092085.113 ], [ 280786.706, 6092128.113 ], [ 280701.77, 6092152.631 ], [ 280654.802, 6092150.039 ], [ 280459.552, 6092158.368 ], [ 280323.333, 6092170.868 ], [ 280117.367, 6092200.641 ], [ 279915.609, 6092251.655 ], [ 279720.244, 6092323.359 ], [ 279533.388, 6092414.975 ], [ 279357.063, 6092525.512 ], [ 279249.501, 6092601.012 ], [ 279209.053, 6092632.888 ], [ 279167.21, 6092644.19 ], [ 279161.471, 6092645.812 ], [ 279121.809, 6092651.138 ], [ 278931.848, 6092695.836 ], [ 278813.567, 6092729.836 ], [ 278601.015, 6092804.122 ], [ 278398.16, 6092901.828 ], [ 278294.191, 6092959.328 ], [ 278147.704, 6093048.758 ], [ 278009.423, 6093150.418 ], [ 277923.904, 6093219.131 ], [ 277887.486, 6093242.738 ], [ 277759.92, 6093332.685 ], [ 277639.758, 6093432.306 ], [ 277532.195, 6093528.806 ], [ 277367.601, 6093694.829 ], [ 277231.382, 6093849.329 ], [ 277110.136, 6094001.114 ], [ 277069.608, 6094063.4 ], [ 276957.188, 6094104.821 ], [ 276805.973, 6094019.794 ], [ 276630.974, 6093942.375 ], [ 276584.381, 6093924.375 ], [ 276399.73, 6093863.183 ], [ 276210.009, 6093820.218 ], [ 276017.011, 6093795.888 ], [ 275822.562, 6093790.422 ], [ 275628.503, 6093803.872 ], [ 275436.667, 6093836.111 ], [ 275248.871, 6093886.834 ], [ 275066.891, 6093955.561 ], [ 274892.448, 6094041.642 ], [ 274727.193, 6094144.263 ], [ 274572.689, 6094262.452 ], [ 274430.398, 6094395.091 ], [ 274301.665, 6094540.927 ], [ 274187.709, 6094698.579 ], [ 274089.607, 6094866.556 ], [ 274008.288, 6095043.268 ], [ 273944.521, 6095227.045 ], [ 273898.908, 6095416.147 ], [ 273871.883, 6095608.786 ], [ 273868.289, 6095648.286 ], [ 273861.538, 6095906.315 ], [ 273865.132, 6095999.815 ], [ 273879.139, 6096171.375 ], [ 273907.845, 6096341.096 ], [ 273951.039, 6096507.72 ], [ 273990.477, 6096636.72 ], [ 274050.587, 6096805.804 ], [ 274125.612, 6096968.82 ], [ 274214.946, 6097124.454 ], [ 274265.134, 6097203.454 ], [ 274366.23, 6097348.074 ], [ 274479.679, 6097483.219 ], [ 274604.599, 6097607.84 ], [ 274740.016, 6097720.965 ], [ 274800.953, 6097767.465 ], [ 274970.258, 6097883.415 ], [ 275150.553, 6097981.407 ], [ 275339.94, 6098060.409 ], [ 275350.146, 6098063.484 ], [ 275424.57, 6098129.249 ], [ 275551.931, 6098224.88 ], [ 275691.712, 6098321.38 ], [ 275868.493, 6098430.324 ], [ 276055.618, 6098520.351 ], [ 276079.471, 6098528.911 ], [ 276107.439, 6098632.1 ], [ 276184.081, 6098829.378 ], [ 276281.14, 6099017.453 ], [ 276292.838, 6099035.219 ], [ 276310.93, 6099096.744 ], [ 276328.043, 6099151.975 ], [ 276381.793, 6099316.975 ], [ 276450.869, 6099498.557 ], [ 276537.237, 6099672.581 ], [ 276605.362, 6099794.581 ], [ 276710.696, 6099962.985 ], [ 276832.216, 6100120.11 ], [ 276918.247, 6100220.61 ], [ 277018.938, 6100329.757 ], [ 277127.449, 6100431.133 ], [ 277209.918, 6100502.633 ], [ 277367.631, 6100626.095 ], [ 277536.902, 6100733.165 ], [ 277716.034, 6100822.767 ], [ 277903.229, 6100894.003 ], [ 278035.854, 6100937.003 ], [ 278229.314, 6100989.175 ], [ 278427.024, 6101021.728 ], [ 278626.999, 6101034.335 ], [ 278899.467, 6101037.835 ], [ 278915.739, 6101037.713 ], [ 278930.312, 6101044.174 ], [ 279109.562, 6101119.674 ], [ 279211.83, 6101159.482 ], [ 279374.511, 6101217.719 ], [ 279459.442, 6101253.57 ], [ 279578.734, 6101299.491 ], [ 279743.64, 6101356.991 ], [ 279869.669, 6101393.88 ], [ 279878.631, 6101403.886 ], [ 279945.373, 6101513.957 ], [ 280061.999, 6101669.804 ], [ 280148.031, 6101773.804 ], [ 280269.341, 6101907.509 ], [ 280331.921, 6101997.667 ], [ 280417.953, 6102105.167 ], [ 280523.351, 6102226.529 ], [ 280638.155, 6102339.036 ], [ 280686.493, 6102382.74 ], [ 280815.268, 6102585.268 ], [ 280876.205, 6102667.768 ], [ 280986.743, 6102804.42 ], [ 281080.981, 6102901.986 ], [ 281118.296, 6102947.444 ], [ 281273.185, 6103115.55 ], [ 281395.091, 6103233.55 ], [ 281547.011, 6103366.428 ], [ 281711.55, 6103483.318 ], [ 281819.081, 6103551.818 ], [ 281977.105, 6103642.636 ], [ 282095.417, 6103703.636 ], [ 282121.075, 6103715.538 ], [ 282141.61, 6103774.735 ], [ 282220.889, 6103947.961 ], [ 282278.232, 6104058.961 ], [ 282389.444, 6104248.027 ], [ 282520.692, 6104423.776 ], [ 282670.397, 6104584.096 ], [ 282760.022, 6104670.096 ], [ 282858.423, 6104758.458 ], [ 282932.906, 6104821.018 ], [ 283003.502, 6104894.771 ], [ 283114.509, 6105018.627 ], [ 283131.453, 6105038.789 ], [ 283168.956, 6105104.295 ], [ 283272.084, 6105251.849 ], [ 283433.396, 6105461.849 ], [ 283501.267, 6105545.446 ], [ 283630.33, 6105695.946 ], [ 283800.318, 6105871.268 ], [ 283965.224, 6106021.768 ], [ 284023.356, 6106072.796 ], [ 284231.262, 6106248.296 ], [ 284266.149, 6106277.076 ], [ 284413.149, 6106395.576 ], [ 284625.53, 6106545.116 ], [ 284851.373, 6106683.116 ], [ 285104.907, 6106814.171 ], [ 285330.751, 6106911.171 ], [ 285341.895, 6106915.918 ], [ 285537.838, 6106998.674 ], [ 285639.175, 6107049.285 ], [ 285751.506, 6107164.296 ], [ 285883.28, 6107277.617 ], [ 286024.82, 6107389.017 ], [ 286144.943, 6107485.813 ], [ 286301.618, 6107599.996 ], [ 286437.837, 6107689.496 ], [ 286552.588, 6107759.487 ], [ 286771.275, 6107882.987 ], [ 286996.215, 6107992.074 ], [ 287035.888, 6108008.336 ], [ 287052.3, 6108022.395 ], [ 287183.216, 6108125.407 ], [ 287228.921, 6108155.571 ], [ 287241.498, 6108168.001 ], [ 287306.893, 6108229.787 ], [ 287521.04, 6108423.186 ], [ 287645.587, 6108537.058 ], [ 287814.443, 6108675.308 ], [ 287927.642, 6108758.1 ], [ 288097.672, 6108888.852 ], [ 288195.465, 6108980.243 ], [ 288202.591, 6108986.87 ], [ 288226.904, 6109009.37 ], [ 288250.122, 6109030.521 ], [ 288298.546, 6109073.943 ], [ 288311.658, 6109086.321 ], [ 288371.113, 6109142.453 ], [ 288443.551, 6109210.905 ], [ 288509.588, 6109276.905 ], [ 288573.231, 6109358.253 ], [ 288639.988, 6109448.106 ], [ 288829.136, 6109703.455 ], [ 288902.935, 6109797.112 ], [ 289075.144, 6110002.741 ], [ 289177.593, 6110138.311 ], [ 289324.355, 6110311.193 ], [ 289489.744, 6110466.349 ], [ 289589.384, 6110549.724 ], [ 289613.419, 6110599.052 ], [ 289716.705, 6110785.168 ], [ 289839.186, 6110959.253 ], [ 289979.475, 6111119.335 ], [ 290094.193, 6111236.972 ], [ 290256.012, 6111411.656 ], [ 290351.53, 6111507.997 ], [ 290447.007, 6111597.976 ], [ 290468.889, 6111632.915 ], [ 290578.827, 6111777.428 ], [ 290701.417, 6111911.374 ], [ 290763.705, 6111973.515 ], [ 290936.324, 6112161.471 ], [ 291084.723, 6112324.101 ], [ 291167.609, 6112409.671 ], [ 291222.478, 6112463.04 ], [ 291292.967, 6112557.714 ], [ 291308.609, 6112577.427 ], [ 291319.884, 6112606.155 ], [ 291362.915, 6112710.155 ], [ 291424.503, 6112844.69 ], [ 291495.87, 6112974.303 ], [ 291571.151, 6113099.803 ], [ 291658.674, 6113233.323 ], [ 291725.592, 6113327.028 ], [ 291790.176, 6113425.37 ], [ 291919.051, 6113600.134 ], [ 292066.113, 6113759.897 ], [ 292229.628, 6113902.775 ], [ 292245.507, 6113915.196 ], [ 292315.581, 6114002.851 ], [ 292422.981, 6114126.46 ], [ 292551.052, 6114262.212 ], [ 292551.555, 6114262.832 ], [ 292568.553, 6114289.449 ], [ 292702.948, 6114475.439 ], [ 292828.999, 6114630.323 ], [ 292933.605, 6114761.639 ], [ 292980.378, 6114818.195 ], [ 293113.003, 6114972.695 ], [ 293263.567, 6115129.906 ], [ 293447.01, 6115301.674 ], [ 293539.583, 6115399.045 ], [ 293556.905, 6115417.039 ], [ 293733.093, 6115597.785 ], [ 293814.309, 6115692.915 ], [ 293928.317, 6115827.054 ], [ 294037.666, 6115965.981 ], [ 294142.264, 6116088.394 ], [ 294278.483, 6116235.394 ], [ 294406.97, 6116362.075 ], [ 294546.351, 6116476.661 ], [ 294695.492, 6116578.219 ], [ 294788.71, 6116635.719 ], [ 294932.734, 6116716.545 ], [ 295062.082, 6116775.679 ], [ 295161.7, 6116830.998 ], [ 295357.459, 6116926.156 ], [ 295604.802, 6117030.156 ], [ 295802.898, 6117101.429 ], [ 295940.683, 6117142.953 ], [ 295973.663, 6117155.309 ], [ 296021.51, 6117178.578 ], [ 296229.283, 6117265.523 ], [ 296391.727, 6117322.982 ], [ 296485.545, 6117366.009 ], [ 296701.278, 6117475.427 ], [ 296880.816, 6117572.952 ], [ 296968.125, 6117617.642 ], [ 297150.968, 6117705.642 ], [ 297233.667, 6117745.418 ], [ 297351.572, 6117817.94 ], [ 297307.256, 6117995.923 ], [ 297275.006, 6118167.923 ], [ 297243.116, 6118439.251 ], [ 297235.959, 6118586.251 ], [ 297240.891, 6118854.19 ], [ 297251.641, 6118979.69 ], [ 297283.067, 6119200.657 ], [ 297287.161, 6119221.157 ], [ 297304.709, 6119308.868 ], [ 297354.194, 6119504.373 ], [ 297423.115, 6119693.901 ], [ 297451.803, 6119761.901 ], [ 297523.858, 6119914.401 ], [ 297608.506, 6120060.288 ], [ 297705.146, 6120198.524 ], [ 297751.739, 6120259.524 ], [ 297850.195, 6120378.589 ], [ 298047.351, 6120599.089 ], [ 298116.766, 6120672.874 ], [ 298452.841, 6121012.446 ], [ 298627.91, 6121197.19 ], [ 298637.662, 6121207.408 ], [ 298816.912, 6121393.908 ], [ 298838.999, 6121416.528 ], [ 299075.592, 6121655.028 ], [ 299082.239, 6121661.697 ], [ 299204.089, 6121783.378 ], [ 299209.806, 6121802.186 ], [ 299216.988, 6121846.248 ], [ 299251.069, 6122011.232 ], [ 299298.913, 6122172.763 ], [ 299341.913, 6122298.263 ], [ 299411.76, 6122474.42 ], [ 299497.965, 6122643.177 ], [ 299586.055, 6122797.148 ], [ 299624.463, 6122868.322 ], [ 299639.305, 6122895.324 ], [ 299714.586, 6123029.824 ], [ 299811.215, 6123185.309 ], [ 299921.655, 6123331.308 ], [ 300044.983, 6123466.597 ], [ 300105.295, 6123526.962 ], [ 300218.978, 6123671.171 ], [ 300247.309, 6123706.287 ], [ 300383.527, 6123871.287 ], [ 300443.385, 6123940.503 ], [ 300606.65, 6124120.79 ], [ 300649.009, 6124168.814 ], [ 300722.591, 6124260.692 ], [ 300815.666, 6124396.83 ], [ 300965.803, 6124619.861 ], [ 300998.141, 6124666.458 ], [ 301065.64, 6124760.836 ], [ 301083.969, 6124796.722 ], [ 301177.667, 6124960.588 ], [ 301278.464, 6125119.017 ], [ 301367.756, 6125290.249 ], [ 301405.019, 6125358.444 ], [ 301482.436, 6125493.802 ], [ 301536.638, 6125599.642 ], [ 301587.742, 6125693.199 ], [ 301652.274, 6125804.199 ], [ 301761.52, 6125972.146 ], [ 301824.171, 6126050.109 ], [ 301926.781, 6126211.423 ], [ 301977.505, 6126287.287 ], [ 302095.817, 6126455.787 ], [ 302173.254, 6126558.843 ], [ 302320.223, 6126741.843 ], [ 302432.957, 6126870.529 ], [ 302556.275, 6126989.109 ], [ 302689.277, 6127096.717 ], [ 302897.215, 6127250.717 ], [ 303088.205, 6127375.939 ], [ 303299.705, 6127497.939 ], [ 303435.113, 6127569.286 ], [ 303537.003, 6127618.086 ], [ 303601.981, 6127657.415 ], [ 303640.708, 6127696.822 ], [ 303794.193, 6127824.586 ], [ 303798.516, 6127827.508 ], [ 303798.985, 6127862.379 ], [ 303823.705, 6128070.453 ], [ 303870.059, 6128274.799 ], [ 303877.745, 6128301.992 ], [ 303885.58, 6128336.512 ], [ 303950.961, 6128562.205 ], [ 304034.29, 6128759.558 ], [ 304082.524, 6128879.275 ], [ 304180.551, 6129064.099 ], [ 304218.621, 6129127.612 ], [ 304326.138, 6129288.738 ], [ 304448.738, 6129438.707 ], [ 304585.271, 6129576.113 ], [ 304661.38, 6129645.627 ], [ 304666.61, 6129650.386 ], [ 304736.092, 6129713.399 ], [ 304762.427, 6129736.861 ], [ 304841.849, 6129806.375 ], [ 304970.715, 6129910.075 ], [ 305107.71, 6130002.771 ], [ 305213.005, 6130067.838 ], [ 305384.538, 6130175.853 ], [ 305466.581, 6130224.819 ], [ 305870.287, 6130452.864 ], [ 305955.716, 6130498.43 ], [ 306107.934, 6130574.945 ], [ 306181.469, 6130607.098 ], [ 306181.469, 6130703.5 ], [ 306192.706, 6130915.212 ], [ 306210.643, 6131083.712 ], [ 306237.536, 6131260.669 ], [ 306280.141, 6131434.513 ], [ 306338.118, 6131603.851 ], [ 306384.712, 6131722.351 ], [ 306386.143, 6131725.981 ], [ 306409.997, 6131786.302 ], [ 306420.722, 6131821.567 ], [ 306421.534, 6131826.04 ], [ 306464.88, 6132013.241 ], [ 306525.991, 6132195.418 ], [ 306604.303, 6132370.89 ], [ 306699.092, 6132538.036 ], [ 306760.123, 6132634.536 ], [ 306777.521, 6132662.009 ], [ 306885.728, 6132816.29 ], [ 307007.976, 6132959.702 ], [ 307134.507, 6133094.702 ], [ 307175.646, 6133134.856 ], [ 307189.03, 6133324.867 ], [ 307195.968, 6133373.867 ], [ 307225.959, 6133536.767 ], [ 307269.327, 6133696.627 ], [ 307290.202, 6133762.627 ], [ 307359.177, 6133948.21 ], [ 307446.164, 6134126.064 ], [ 307550.31, 6134294.446 ], [ 307588.56, 6134349.946 ], [ 307709.46, 6134507.934 ], [ 307845.458, 6134653.129 ], [ 307995.207, 6134784.096 ], [ 308157.227, 6134899.537 ], [ 308192.003, 6134919.428 ], [ 308228.694, 6135019.764 ], [ 308241.978, 6135051.771 ], [ 308311.977, 6135202.428 ], [ 308330.149, 6135234.311 ], [ 308362.864, 6135303.651 ], [ 308390.434, 6135354.483 ], [ 308399.377, 6135372.011 ], [ 308418.624, 6135408.792 ], [ 308448.412, 6135464.303 ], [ 308519.14, 6135579.529 ], [ 308564.397, 6135659.692 ], [ 308586.342, 6135690.25 ], [ 308627.018, 6135778.7 ], [ 308735.13, 6135960.38 ], [ 308761.229, 6135999.388 ], [ 308885.358, 6136165.57 ], [ 309026.031, 6136318.001 ], [ 309062.081, 6136349.73 ], [ 309121.535, 6136416.79 ], [ 309269.787, 6136553.412 ], [ 309293.378, 6136571.115 ], [ 309301.441, 6136579.535 ], [ 309346.509, 6136622.636 ], [ 309409.777, 6136718.699 ], [ 309529.187, 6136867.069 ], [ 309638.733, 6136979.382 ], [ 309638.241, 6136979.879 ], [ 309647.336, 6136988.881 ], [ 309652.594, 6136993.593 ], [ 309662.167, 6137003.408 ], [ 309681.484, 6137021.412 ], [ 309682.462, 6137020.362 ], [ 309794.673, 6137120.93 ], [ 309954.336, 6137237.776 ], [ 310124.763, 6137338.274 ], [ 310304.286, 6137421.442 ], [ 310340.502, 6137436.09 ], [ 310371.228, 6137451.62 ], [ 310545.618, 6137520.12 ], [ 310593.254, 6137533.847 ], [ 310632.213, 6137549.089 ], [ 310681.951, 6137566.75 ], [ 310709.728, 6137580.31 ], [ 310897.375, 6137649.671 ], [ 311001.738, 6137676.764 ], [ 311021.978, 6137683.463 ], [ 311057.819, 6137694.853 ], [ 311058.531, 6137704.657 ], [ 311086.949, 6137860.674 ], [ 311097.078, 6137950.414 ], [ 311103.723, 6137984.891 ], [ 311115.209, 6138084.175 ], [ 311132.431, 6138184.195 ], [ 311172.775, 6138366.913 ], [ 311230.018, 6138545.06 ], [ 311303.66, 6138717.078 ], [ 311351.799, 6138805.597 ], [ 311355.905, 6138816.336 ], [ 311312.984, 6138928.128 ], [ 311259.418, 6139126.424 ], [ 311226.473, 6139329.167 ], [ 311222.066, 6139369.175 ], [ 311210.465, 6139629.348 ], [ 311211.371, 6139673.357 ], [ 311213.51, 6139733.394 ], [ 311215.386, 6139770.401 ], [ 311226.085, 6139899.126 ], [ 311229.211, 6139926.131 ], [ 311239.09, 6139999.553 ], [ 311247.686, 6140055.564 ], [ 311283.256, 6140233.241 ], [ 311327.529, 6140382.572 ], [ 311323.86, 6140408.355 ], [ 311314.736, 6140590.918 ], [ 311322.318, 6140773.552 ], [ 311346.542, 6140954.731 ], [ 311354.669, 6140999.74 ], [ 311405.42, 6141213.13 ], [ 311479.233, 6141419.679 ], [ 311493.955, 6141454.686 ], [ 311563.252, 6141602.316 ], [ 311644.346, 6141743.809 ], [ 311676.728, 6141795.319 ], [ 311780.9, 6141945.358 ], [ 311898.328, 6142085.268 ], [ 311902.902, 6142090.238 ], [ 311956.02, 6142155.137 ], [ 312095.803, 6142295.075 ], [ 312112.321, 6142310.052 ], [ 312123.889, 6142321.153 ], [ 312157.002, 6142355.389 ], [ 312356.911, 6142535.976 ], [ 312410.234, 6142577.985 ], [ 312455.262, 6142612.435 ], [ 312496.287, 6142642.911 ], [ 312518.513, 6142659.54 ], [ 312558.152, 6142691.972 ], [ 312560.038, 6142696.209 ], [ 312651.245, 6142855.575 ], [ 312658.515, 6142869.47 ], [ 312639.237, 6143078.102 ], [ 312643.161, 6143297.922 ], [ 312650.787, 6143402.443 ], [ 312673.557, 6143590.82 ], [ 312714.077, 6143776.191 ], [ 312728.33, 6143829.201 ], [ 312794.11, 6144030.626 ], [ 312815.779, 6144086.718 ], [ 312928.893, 6144329.69 ], [ 312991.581, 6144443.69 ], [ 313115.601, 6144641.039 ], [ 313261.739, 6144822.618 ], [ 313371.333, 6144943.618 ], [ 313451.159, 6145025.127 ], [ 313436.368, 6145203.83 ], [ 313435.927, 6145217.952 ], [ 313435.533, 6145227.079 ], [ 313436.726, 6145423.777 ], [ 313457.236, 6145619.405 ], [ 313496.863, 6145812.073 ], [ 313555.225, 6145999.917 ], [ 313595.799, 6146095.985 ], [ 313655.074, 6146244.443 ], [ 313667.077, 6146270.449 ], [ 313761.524, 6146450.437 ], [ 313873.753, 6146619.909 ], [ 314002.603, 6146777.114 ], [ 314146.745, 6146920.43 ], [ 314171.25, 6146942.434 ], [ 314324.962, 6147067.285 ], [ 314348.154, 6147084.288 ], [ 314507.303, 6147189.675 ], [ 314512.81, 6147192.608 ], [ 314497.37, 6147210.177 ], [ 314468.795, 6147246.827 ], [ 314395.672, 6147335.426 ], [ 314352.601, 6147390.937 ], [ 314241.045, 6147550.122 ], [ 314145.47, 6147719.384 ], [ 314066.777, 6147897.125 ], [ 314044.397, 6147955.137 ], [ 313984.212, 6148136.516 ], [ 313941.612, 6148322.812 ], [ 313931.235, 6148380.824 ], [ 313905.412, 6148585.763 ], [ 313900.864, 6148792.273 ], [ 313917.64, 6148998.15 ], [ 313921.039, 6149016.348 ], [ 313923.316, 6149064.739 ], [ 313953.097, 6149264.453 ], [ 314002.863, 6149460.146 ], [ 314023.863, 6149528.146 ], [ 314091.586, 6149714.219 ], [ 314099.793, 6149731.292 ], [ 314123.566, 6149896.859 ], [ 314172.988, 6150094.81 ], [ 314242.32, 6150286.695 ], [ 314330.841, 6150470.519 ], [ 314437.629, 6150644.367 ], [ 314504.61, 6150741.882 ], [ 314514.289, 6150797.087 ], [ 314514.577, 6150802.206 ], [ 314532.994, 6150982.853 ], [ 314567.72, 6151161.084 ], [ 314583.723, 6151227.097 ], [ 314638.308, 6151412.59 ], [ 314693.069, 6151570.121 ], [ 314723.725, 6151652.435 ], [ 314751.168, 6151721.449 ], [ 314836.648, 6151907.94 ], [ 314841.569, 6151916.293 ], [ 314852.768, 6152091.332 ], [ 314883.016, 6152279.626 ], [ 314900.239, 6152361.642 ], [ 314938.543, 6152514.023 ], [ 314976.863, 6152644.55 ], [ 314994.833, 6152695.215 ], [ 315008.652, 6152766.757 ], [ 315064.476, 6152954.625 ], [ 315138.419, 6153136.127 ], [ 315165.206, 6153193.638 ], [ 315180.747, 6153226.968 ], [ 315208.231, 6153395.004 ], [ 315264.541, 6153599.773 ], [ 315342.246, 6153797.417 ], [ 315349.765, 6153813.911 ], [ 315367.808, 6153871.911 ], [ 315427.757, 6154041.945 ], [ 315504.526, 6154228.957 ], [ 315599.781, 6154407.264 ], [ 315686.234, 6154535.892 ], [ 315679.776, 6154629.374 ], [ 315681.204, 6154661.671 ], [ 315640.829, 6154830.234 ], [ 315614.137, 6155022.252 ], [ 315606.161, 6155215.952 ], [ 315616.977, 6155409.515 ], [ 315646.482, 6155601.122 ], [ 315727.867, 6155999.995 ], [ 315769.364, 6156348.766 ], [ 315805.691, 6156558.344 ], [ 315886.207, 6156910.414 ], [ 315919.253, 6157027.693 ], [ 315896.758, 6157144.419 ], [ 315894.325, 6157159.861 ], [ 315890.397, 6157180.479 ], [ 315865.194, 6157353.715 ], [ 315855.236, 6157528.491 ], [ 315854.33, 6157597.505 ], [ 315854.184, 6157634.056 ], [ 315854.59, 6157713.072 ], [ 315857.374, 6157808.77 ], [ 315860.187, 6157861.78 ], [ 315878.148, 6158043.295 ], [ 315912.572, 6158222.419 ], [ 315963.172, 6158397.661 ], [ 315973.328, 6158423.667 ], [ 315987.142, 6158598.73 ], [ 315997.738, 6158677.746 ], [ 316011.562, 6158765.868 ], [ 316023.252, 6158830.881 ], [ 316062.423, 6159004.149 ], [ 316116.813, 6159173.258 ], [ 316120.623, 6159183.517 ], [ 316120.999, 6159215.182 ], [ 316119.505, 6159235.675 ], [ 316118.171, 6159261.915 ], [ 316110.14, 6159333.481 ], [ 316107.764, 6159369.488 ], [ 316104.703, 6159572.606 ], [ 316122.262, 6159774.985 ], [ 316125.856, 6159800.991 ], [ 316127.688, 6159813.93 ], [ 316129.282, 6159824.932 ], [ 316169.515, 6160027.943 ], [ 316230.512, 6160225.709 ], [ 316311.62, 6160416.112 ], [ 316336.701, 6160461.352 ], [ 316352.419, 6160516.75 ], [ 316371.704, 6160570.761 ], [ 316420.663, 6160694.678 ], [ 316448.887, 6160759.691 ], [ 316575.58, 6161003.979 ], [ 316578.209, 6161008.293 ], [ 316595.974, 6161051.325 ], [ 316610.164, 6161081.331 ], [ 316672.538, 6161194.034 ], [ 316670.91, 6161295.833 ], [ 316691.283, 6161513.444 ], [ 316696.503, 6161548.451 ], [ 316707.427, 6161607.065 ], [ 316714.688, 6161659.518 ], [ 316747.297, 6161809.374 ], [ 316748.462, 6161813.886 ], [ 316748.767, 6161875.528 ], [ 316755.304, 6162027.496 ], [ 316773.372, 6162178.529 ], [ 316782.561, 6162236.54 ], [ 316827.93, 6162448.122 ], [ 316831.537, 6162459.029 ], [ 316830.582, 6162481.32 ], [ 316830.77, 6162538.332 ], [ 316839.761, 6162721.303 ], [ 316843.856, 6162764.311 ], [ 316865.654, 6162924.406 ], [ 316877.375, 6162990.42 ], [ 316905.684, 6163123.416 ], [ 316917.374, 6163170.426 ], [ 316919.49, 6163177.407 ], [ 316924.175, 6163206.139 ], [ 316926.149, 6163249.605 ], [ 316940.563, 6163415.04 ], [ 316963.936, 6163551.232 ], [ 316967.586, 6163576.04 ], [ 316975.477, 6163629.574 ], [ 316989.856, 6163701.331 ], [ 316976.105, 6163751.81 ], [ 316945.339, 6163920.881 ], [ 316929.199, 6164091.969 ], [ 316927.806, 6164263.81 ], [ 316929.307, 6164306.819 ], [ 316943.535, 6164485.164 ], [ 316950.036, 6164537.174 ], [ 316968.043, 6164638.734 ], [ 316968.48, 6164658.158 ], [ 316970.969, 6164722.583 ], [ 316974.766, 6164791.892 ], [ 316978.592, 6164873.2 ], [ 316990.103, 6165013.078 ], [ 316996.698, 6165069.089 ], [ 317038.372, 6165302.667 ], [ 317047.947, 6165342.497 ], [ 317056.831, 6165384.18 ], [ 317072.354, 6165451.31 ], [ 317086.576, 6165508.321 ], [ 317158.392, 6165736.917 ], [ 317178.99, 6165790.927 ], [ 317179.616, 6165792.374 ], [ 317162.017, 6165913.406 ], [ 317156.036, 6165969.226 ], [ 317148.649, 6166038.049 ], [ 317137.266, 6166263.997 ], [ 317137.453, 6166294.003 ], [ 317143.248, 6166434.146 ], [ 317150.061, 6166523.164 ], [ 317154.12, 6166575.924 ], [ 317154.905, 6166585.81 ], [ 317160.312, 6166651.823 ], [ 317185.7, 6166845.233 ], [ 317197.483, 6166910.246 ], [ 317243.129, 6167105.644 ], [ 317261.227, 6167168.656 ], [ 317315.803, 6167331.865 ], [ 317333.807, 6167378.874 ], [ 317411.735, 6167556.142 ], [ 317447.648, 6167628.156 ], [ 317509.539, 6167737.833 ], [ 317478.79, 6167833.74 ], [ 317463.881, 6167887.751 ], [ 317424.468, 6168059.798 ], [ 317400.378, 6168234.65 ], [ 317391.798, 6168410.945 ], [ 317392.6, 6168431.162 ], [ 317379.019, 6168559.648 ], [ 317374.299, 6168636.663 ], [ 317371.734, 6168827.668 ], [ 317387.402, 6169018.047 ], [ 317421.161, 6169206.062 ], [ 317435.383, 6169268.074 ], [ 317437.404, 6169275.95 ], [ 317435.747, 6169337.452 ], [ 317437.435, 6169425.469 ], [ 317442.299, 6169531.692 ], [ 317449.113, 6169625.711 ], [ 317463.498, 6169760.572 ], [ 317467.005, 6169785.427 ], [ 317467.309, 6169860.334 ], [ 317467.871, 6169885.028 ], [ 317441.392, 6170045.013 ], [ 317429.915, 6170271.318 ], [ 317430.227, 6170323.328 ], [ 317439.667, 6170467.371 ], [ 317430.067, 6170521.274 ], [ 317421.472, 6170579.285 ], [ 317403.189, 6170757.291 ], [ 317400.891, 6170936.219 ], [ 317402.391, 6170983.228 ], [ 317403.72, 6171016.3 ], [ 317405.517, 6171053.353 ], [ 317406.535, 6171090.39 ], [ 317409.989, 6171165.141 ], [ 317410.218, 6171168.661 ], [ 317410.492, 6171225.188 ], [ 317413.979, 6171333.941 ], [ 317418.074, 6171402.955 ], [ 317419.158, 6171419.994 ], [ 317421.661, 6171456.854 ], [ 317422.244, 6171481.622 ], [ 317427.99, 6171590.975 ], [ 317424.163, 6171659.341 ], [ 317423.637, 6171675.209 ], [ 317421.571, 6171694.384 ], [ 317415.883, 6171756.148 ], [ 317412.289, 6171803.158 ], [ 317408.685, 6171880.39 ], [ 317401.655, 6171965.9 ], [ 317396.935, 6172045.916 ], [ 317393.743, 6172130.351 ], [ 317393.373, 6172152.543 ], [ 317392.997, 6172159.436 ], [ 317391.602, 6172171.414 ], [ 317389.241, 6172192.689 ], [ 317383.114, 6172250.7 ], [ 317374.948, 6172353.203 ], [ 317373.392, 6172382.089 ], [ 317371.861, 6172399.068 ], [ 317364.901, 6172511.566 ], [ 317364.1, 6172535.398 ], [ 317361.295, 6172572.329 ], [ 317355.695, 6172699.821 ], [ 317354.82, 6172772.835 ], [ 317354.694, 6172805.202 ], [ 317354.975, 6172872.215 ], [ 317356.295, 6172936.942 ], [ 317359.295, 6173018.958 ], [ 317370.759, 6173171.752 ], [ 317377.354, 6173229.763 ], [ 317383.053, 6173270.122 ], [ 317385.045, 6173299.8 ], [ 317387.328, 6173330.321 ], [ 317391.454, 6173380.331 ], [ 317399.215, 6173456.553 ], [ 317403.215, 6173489.559 ], [ 317408.636, 6173530.704 ], [ 317416.351, 6173584.911 ], [ 317417.7, 6173597.932 ], [ 317449.378, 6173788.141 ], [ 317474.357, 6173982.616 ], [ 317529.786, 6174206.22 ], [ 317548.934, 6174267.984 ], [ 317425.441, 6175114.961 ], [ 316656.744, 6177446.756 ], [ 316437.091, 6177501.777 ], [ 316196.854, 6177587.735 ], [ 315966.2, 6177696.826 ], [ 315747.348, 6177828.001 ], [ 315542.409, 6177979.994 ], [ 315353.353, 6178151.344 ], [ 315182.004, 6178340.399 ], [ 315030.01, 6178545.339 ], [ 314898.836, 6178764.19 ], [ 314789.744, 6178994.845 ], [ 314703.786, 6179235.082 ], [ 314641.789, 6179482.587 ], [ 314604.351, 6179734.977 ], [ 314591.831, 6179989.822 ], [ 314604.351, 6180244.666 ], [ 314641.789, 6180497.057 ], [ 314665.623, 6180592.205 ], [ 314645.502, 6180727.418 ], [ 314635.792, 6180923.669 ], [ 314645.386, 6181119.925 ], [ 314674.191, 6181314.293 ], [ 314721.931, 6181504.897 ], [ 314788.143, 6181689.896 ], [ 314872.189, 6181867.505 ], [ 314973.258, 6182036.009 ], [ 314999.358, 6182071.17 ], [ 315009.719, 6182092.457 ], [ 315113.908, 6182261.516 ], [ 315234.349, 6182419.41 ], [ 315369.854, 6182564.581 ], [ 315519.088, 6182695.598 ], [ 315680.58, 6182811.169 ], [ 315852.737, 6182910.156 ], [ 316033.862, 6182991.582 ], [ 316222.168, 6183054.644 ], [ 316415.801, 6183098.721 ], [ 316612.85, 6183123.378 ], [ 316811.373, 6183128.372 ], [ 317009.413, 6183113.654 ], [ 317205.017, 6183079.368 ], [ 317396.256, 6183025.854 ], [ 317581.246, 6182953.638 ], [ 317695.449, 6182895.408 ], [ 317732.767, 6182877.776 ], [ 317825.103, 6182831.191 ], [ 317923.748, 6182778.181 ], [ 318044.851, 6182707.522 ], [ 318062.545, 6182696.349 ], [ 318132.996, 6182662.897 ], [ 318266.618, 6182593.053 ], [ 318307.456, 6182572.506 ], [ 318477.036, 6182476.558 ], [ 318548.005, 6182426.708 ], [ 318590.62, 6182404.454 ], [ 318675.637, 6182352.444 ], [ 318812.391, 6182260.843 ], [ 318941.149, 6182158.307 ], [ 318962.902, 6182139.47 ], [ 319019.899, 6182106.935 ], [ 319201.279, 6181989.991 ], [ 319369.003, 6181854.184 ], [ 319506.284, 6181730.184 ], [ 319631.017, 6181607.18 ], [ 319744.507, 6181473.733 ], [ 319773.649, 6181436.258 ], [ 319869.605, 6181331.595 ], [ 319986.423, 6181176.261 ], [ 320005.427, 6181148.255 ], [ 320096.362, 6181000.895 ], [ 320115.366, 6180966.888 ], [ 320118.862, 6180960.051 ], [ 320120.431, 6180958.359 ], [ 320142.029, 6180931.353 ], [ 320182.036, 6180877.115 ], [ 320267.505, 6180793.759 ], [ 320385.959, 6180655.014 ], [ 320399.961, 6180637.01 ], [ 320521.535, 6180462.247 ], [ 320542.087, 6180424.741 ], [ 320599.502, 6180355.257 ], [ 320625.715, 6180320.27 ], [ 320732.028, 6180203.321 ], [ 320794.824, 6180120.987 ], [ 320889.81, 6180032.369 ], [ 321016.741, 6179888.881 ], [ 321141.148, 6179733.881 ], [ 321257.633, 6179572.992 ], [ 321357.585, 6179401.342 ], [ 321440.017, 6179220.624 ], [ 321504.117, 6179032.62 ], [ 321549.252, 6178839.185 ], [ 321574.978, 6178642.227 ], [ 321581.039, 6178443.689 ], [ 321571.171, 6178300.548 ], [ 321624.34, 6178163.3 ], [ 321677.878, 6177968.894 ], [ 321711.569, 6177770.085 ], [ 321719.169, 6177656.831 ], [ 321794.795, 6177541.443 ], [ 321896.261, 6177340.471 ], [ 321944.667, 6177229.471 ], [ 322014.771, 6177044.168 ], [ 322066.197, 6176852.838 ], [ 322093.885, 6176724.838 ], [ 322117.825, 6176579.224 ], [ 322140.493, 6176511.402 ], [ 322200.834, 6176288.973 ], [ 322212.109, 6176235.351 ], [ 322225.856, 6176171.72 ], [ 322236.274, 6176120.227 ], [ 322238.521, 6176108.318 ], [ 322242.409, 6176093.388 ], [ 322265.998, 6175992.069 ], [ 322286.587, 6175891.913 ], [ 322304.469, 6175808.744 ], [ 322331.413, 6175654.139 ], [ 322339.064, 6175573.037 ], [ 322363.459, 6175441.843 ], [ 322372.055, 6175381.831 ], [ 322381.199, 6175308.306 ], [ 322382.377, 6175297.155 ], [ 322385.865, 6175274.434 ], [ 322388.026, 6175261.306 ], [ 322389.943, 6175252.816 ], [ 322413.218, 6175132.805 ], [ 322423.126, 6175071.792 ], [ 322432.194, 6175009.84 ], [ 322441.978, 6174934.825 ], [ 322452.37, 6174836.085 ], [ 322456.619, 6174783.109 ], [ 322467.355, 6174769.749 ], [ 322571.317, 6174611.896 ], [ 322659.912, 6174444.934 ], [ 322702.674, 6174341.878 ], [ 322755.83, 6174271.912 ], [ 322913.494, 6174029.918 ], [ 322973.775, 6173920.918 ], [ 323076.549, 6173705.7 ], [ 323152.973, 6173479.779 ], [ 323255.003, 6173106.085 ], [ 323397.668, 6172697.947 ], [ 323459.87, 6172481.61 ], [ 323508.776, 6172266.61 ], [ 323544.184, 6172062.65 ], [ 323558.319, 6171856.123 ], [ 323551.031, 6171649.241 ], [ 323543.531, 6171563.241 ], [ 323513.389, 6171350.481 ], [ 323460.594, 6171142.183 ], [ 323385.756, 6170940.751 ], [ 323289.74, 6170748.511 ], [ 323219.48, 6170639.068 ], [ 323220.535, 6170638.396 ], [ 323161.68, 6170545.951 ], [ 323162.06, 6170544.564 ], [ 323186.016, 6170473.699 ], [ 323222.348, 6170354.007 ], [ 323234.757, 6170307.998 ], [ 323240.234, 6170287.249 ], [ 323249.978, 6170249.513 ], [ 323261.285, 6170205.776 ], [ 323274.245, 6170145.343 ], [ 323313.486, 6170019.934 ], [ 323351.209, 6169837.544 ], [ 323353.62, 6169830.214 ], [ 323394.773, 6169651.195 ], [ 323407.15, 6169583.181 ], [ 323426.143, 6169425.795 ], [ 323447.501, 6169326.09 ], [ 323469.311, 6169087.521 ], [ 323470.405, 6169052.514 ], [ 323471.365, 6168982.066 ], [ 323471.177, 6168935.057 ], [ 323469.201, 6168898.759 ], [ 323523.49, 6168721.267 ], [ 323549.411, 6168595.816 ], [ 323564.455, 6168543.391 ], [ 323566.386, 6168532.406 ], [ 323597.058, 6168434.109 ], [ 323637.109, 6168239.713 ], [ 323657.694, 6168042.305 ], [ 323658.438, 6168028.595 ], [ 323663.593, 6167996.337 ], [ 323669.528, 6167929.693 ], [ 323681.41, 6167866.221 ], [ 323686.411, 6167835.215 ], [ 323693.067, 6167767.644 ], [ 323705.443, 6167726.766 ], [ 323715.445, 6167686.758 ], [ 323719.341, 6167668.053 ], [ 323720.315, 6167665.21 ], [ 323732.818, 6167625.202 ], [ 323791.271, 6167388.216 ], [ 323814.605, 6167194.213 ], [ 323819.195, 6167168.245 ], [ 323831.51, 6167095.23 ], [ 323839.808, 6167041.606 ], [ 323843.061, 6167018.517 ], [ 323860.51, 6166930.284 ], [ 323870.418, 6166872.273 ], [ 323871.731, 6166862.333 ], [ 323911.502, 6166713.045 ], [ 323986.474, 6166541.804 ], [ 324002.79, 6166498.795 ], [ 324061.029, 6166320.471 ], [ 324062.492, 6166313.987 ], [ 324063.316, 6166312.023 ], [ 324067.757, 6166297.355 ], [ 324125.925, 6166191.696 ], [ 324202.642, 6166077.709 ], [ 324204.169, 6166075.438 ], [ 324216.919, 6166056.438 ], [ 324288.219, 6165942.034 ], [ 324468.938, 6165629.034 ], [ 324563.919, 6165442.648 ], [ 324638.913, 6165247.361 ], [ 324714.826, 6165013.862 ], [ 324784.278, 6164986.756 ], [ 324956.966, 6164899.268 ], [ 325120.386, 6164795.495 ], [ 325273.009, 6164676.408 ], [ 325303.196, 6164650.408 ], [ 325439.318, 6164521.58 ], [ 325562.782, 6164380.575 ], [ 325672.506, 6164228.632 ], [ 325767.524, 6164067.086 ], [ 325847.004, 6163897.354 ], [ 325910.247, 6163720.928 ], [ 325956.697, 6163539.356 ], [ 325985.948, 6163354.234 ], [ 325997.741, 6163167.187 ], [ 325991.974, 6162979.857 ], [ 325988.161, 6162930.857 ], [ 325963.589, 6162737.493 ], [ 325920.311, 6162547.44 ], [ 325858.739, 6162362.502 ], [ 325822.633, 6162281.41 ], [ 325875.221, 6162069.31 ], [ 325907.485, 6161912.588 ], [ 325927.117, 6161753.788 ], [ 325938.429, 6161617.788 ], [ 325945.159, 6161427.187 ], [ 325933.702, 6161236.812 ], [ 325907.296, 6160992.812 ], [ 325882.474, 6160840.05 ], [ 325887.252, 6160830.002 ], [ 325917.471, 6160758.002 ], [ 325981.644, 6160582.558 ], [ 326029.167, 6160401.891 ], [ 326059.626, 6160217.578 ], [ 326072.755, 6160031.227 ], [ 326068.439, 6159844.464 ], [ 326046.716, 6159658.919 ], [ 326007.776, 6159476.21 ], [ 325967.046, 6159346.122 ], [ 326087.523, 6159244.891 ], [ 326219.774, 6159110.59 ], [ 326338.795, 6158964.437 ], [ 326443.529, 6158807.727 ], [ 326525.409, 6158656.004 ], [ 326606.574, 6158592.571 ], [ 326746.484, 6158459.614 ], [ 326872.927, 6158313.79 ], [ 326984.725, 6158156.457 ], [ 327080.837, 6157989.08 ], [ 327160.367, 6157813.218 ], [ 327222.575, 6157630.508 ], [ 327266.882, 6157442.654 ], [ 327281.092, 6157338.103 ], [ 327321.039, 6157208.194 ], [ 327359.659, 6157019.684 ], [ 327368.865, 6156933.018 ], [ 327393.0, 6156816.106 ], [ 327411.683, 6156643.435 ], [ 327447.21, 6156562.722 ], [ 327517.3, 6156379.633 ], [ 327569.128, 6156190.56 ], [ 327602.196, 6155997.323 ], [ 327616.186, 6155801.775 ], [ 327610.964, 6155605.798 ], [ 327604.354, 6155518.617 ], [ 327680.399, 6155395.252 ], [ 327693.027, 6155371.247 ], [ 327763.997, 6155221.603 ], [ 327774.186, 6155197.598 ], [ 327839.218, 6155021.95 ], [ 327887.532, 6154840.989 ], [ 327892.533, 6154817.984 ], [ 327919.149, 6154667.273 ], [ 327975.325, 6154488.222 ], [ 328014.793, 6154301.916 ], [ 328036.363, 6154112.701 ], [ 328037.551, 6154094.697 ], [ 328037.833, 6154078.694 ], [ 328044.828, 6153988.444 ], [ 328061.631, 6153916.8 ], [ 328087.337, 6153726.762 ], [ 328102.337, 6153553.762 ], [ 328103.459, 6153497.151 ], [ 328119.508, 6153425.265 ], [ 328143.131, 6153236.424 ], [ 328148.699, 6153046.192 ], [ 328136.16, 6152856.293 ], [ 328105.629, 6152668.445 ], [ 328101.816, 6152650.442 ], [ 328100.799, 6152646.562 ], [ 328098.982, 6152614.739 ], [ 328124.432, 6152455.12 ], [ 328134.509, 6152264.108 ], [ 328167.726, 6152129.042 ], [ 328195.531, 6151938.214 ], [ 328204.093, 6151760.825 ], [ 328220.469, 6151729.952 ], [ 328293.337, 6151553.875 ], [ 328349.117, 6151371.664 ], [ 328387.302, 6151184.97 ], [ 328407.546, 6150995.49 ], [ 328409.665, 6150804.943 ], [ 328393.64, 6150615.06 ], [ 328359.617, 6150427.563 ], [ 328307.903, 6150244.156 ], [ 328238.969, 6150066.503 ], [ 328223.876, 6150032.503 ], [ 328207.589, 6150000.0 ], [ 329969.044, 6150000.0 ], [ 330058.38, 6150115.152 ], [ 330082.291, 6150142.657 ], [ 330232.718, 6150297.892 ], [ 330399.019, 6150435.985 ], [ 330417.637, 6150448.313 ], [ 330445.602, 6150517.131 ], [ 330539.403, 6150694.539 ], [ 330567.065, 6150741.048 ], [ 330725.371, 6150969.448 ], [ 330770.661, 6151025.959 ], [ 330783.927, 6151041.207 ], [ 330854.965, 6151185.3 ], [ 330873.812, 6151219.307 ], [ 330904.058, 6151271.977 ], [ 330925.468, 6151307.984 ], [ 330951.234, 6151350.122 ], [ 330978.895, 6151394.13 ], [ 331108.348, 6151576.574 ], [ 331257.365, 6151743.42 ], [ 331293.841, 6151779.927 ], [ 331346.95, 6151828.421 ], [ 331405.749, 6151967.582 ], [ 331521.722, 6152171.488 ], [ 331541.851, 6152202.494 ], [ 331647.392, 6152349.968 ], [ 331765.858, 6152487.275 ], [ 331846.821, 6152565.504 ], [ 331937.602, 6152655.181 ], [ 331939.899, 6152657.25 ], [ 331940.894, 6152658.199 ], [ 332126.883, 6152815.254 ], [ 332152.388, 6152834.258 ], [ 332303.891, 6152936.714 ], [ 332464.121, 6153024.902 ], [ 332631.737, 6153098.084 ], [ 332805.337, 6153155.647 ], [ 332983.47, 6153197.111 ], [ 333164.646, 6153222.13 ], [ 333347.35, 6153230.492 ], [ 333429.179, 6153230.492 ], [ 333621.91, 6153221.184 ], [ 333812.846, 6153193.347 ], [ 334000.212, 6153147.24 ], [ 334182.262, 6153083.292 ], [ 334357.303, 6153002.098 ], [ 334523.705, 6152904.414 ], [ 334679.919, 6152791.149 ], [ 334824.491, 6152663.358 ], [ 334956.076, 6152522.23 ], [ 335073.449, 6152369.078 ], [ 335175.516, 6152205.329 ], [ 335261.329, 6152032.506 ], [ 335330.089, 6151852.218 ], [ 335381.155, 6151666.142 ], [ 335414.052, 6151476.012 ], [ 335428.474, 6151283.597 ], [ 335424.287, 6151090.687 ], [ 335401.529, 6150899.078 ], [ 335360.413, 6150710.555 ], [ 335301.321, 6150526.871 ], [ 335224.804, 6150349.736 ], [ 335131.573, 6150180.799 ], [ 335022.496, 6150021.632 ], [ 335013.893, 6150011.363 ], [ 335008.657, 6150000.0 ], [ 370000.0, 6150000.0 ], [ 370000.0, 6100000.0 ], [ 325000.0, 6100000.0 ] ] ] } }
]
}
