{
"type": "FeatureCollection",
"name": "boundary_ring",
"crs": { "type": "name", "properties": { "name": "urn:ogc:def:crs:EPSG::3346" } },
"xy_coordinate_resolution": 0.001,
"features": [
{ "type": "Feature", "properties": { }, "geometry": { "type": "Polygon", "coordinates": [ [ [ 319779.311, 6179734.977 ], [ 319741.873, 6179482.587 ], [ 319679.876, 6179235.082 ], [ 319593.918, 6178994.845 ], [ 319484.826, 6178764.19 ], [ 319353.652, 6178545.339 ], [ 319201.658, 6178340.399 ], [ 319030.309, 6178151.344 ], [ 318841.254, 6177979.994 ], [ 318636.314, 6177828.001 ], [ 318417.463, 6177696.826 ], [ 318186.808, 6177587.735 ], [ 317946.571, 6177501.777 ], [ 317699.066, 6177439.78 ], [ 317446.676, 6177402.341 ], [ 317191.831, 6177389.822 ], [ 316936.987, 6177402.341 ], [ 316684.596, 6177439.78 ], [ 316437.091, 6177501.777 ], [ 316196.854, 6177587.735 ], [ 315966.2, 6177696.826 ], [ 315747.348, 6177828.001 ], [ 315542.409, 6177979.994 ], [ 315353.353, 6178151.344 ], [ 315182.004, 6178340.399 ], [ 315030.01, 6178545.339 ], [ 314898.836, 6178764.19 ], [ 314789.744, 6178994.845 ], [ 314703.786, 6179235.082 ], [ 314641.789, 6179482.587 ], [ 314604.351, 6179734.977 ], [ 314591.831, 6179989.822 ], [ 314604.351, 6180244.666 ], [ 314641.789, 6180497.057 ], [ 314703.786, 6180744.562 ], [ 314789.744, 6180984.799 ], [ 314898.836, 6181215.453 ], [ 315030.01, 6181434.304 ], [ 315182.004, 6181639.244 ], [ 315353.353, 6181828.299 ], [ 315542.409, 6181999.649 ], [ 315747.348, 6182151.643 ], [ 315966.2, 6182282.817 ], [ 316196.854, 6182391.908 ], [ 316437.091, 6182477.867 ], [ 316684.596, 6182539.863 ], [ 316936.987, 6182577.302 ], [ 317191.831, 6182589.822 ], [ 317446.676, 6182577.302 ], [ 317699.066, 6182539.863 ], [ 317946.571, 6182477.867 ], [ 318186.808, 6182391.908 ], [ 318417.463, 6182282.817 ], [ 318636.314, 6182151.643 ], [ 318841.254, 6181999.649 ], [ 319030.309, 6181828.299 ], [ 319201.658, 6181639.244 ], [ 319353.652, 6181434.304 ], [ 319484.826, 6181215.453 ], [ 319593.918, 6180984.799 ], [ 319679.876, 6180744.562 ], [ 319741.873, 6180497.057 ], [ 319779.311, 6180244.666 ], [ 319791.831, 6179989.822 ], [ 319779.311, 6179734.977 ] ], [ [ 319182.201, 6180185.856 ], [ 319153.402, 6180380.002 ], [ 319105.712, 6180570.391 ], [ 319039.59, 6180755.189 ], [ 318955.674, 6180932.615 ], [ 318854.77, 6181100.962 ], [ 318737.852, 6181258.608 ], [ 318606.045, 6181404.035 ], [ 318460.618, 6181535.843 ], [ 318302.972, 6181652.761 ], [ 318134.625, 6181753.664 ], [ 317957.198, 6181837.581 ], [ 317772.4, 6181903.702 ], [ 317582.012, 6181951.392 ], [ 317387.865, 6181980.191 ], [ 317191.831, 6181989.822 ], [ 316995.797, 6181980.191 ], [ 316801.65, 6181951.392 ], [ 316611.262, 6181903.702 ], [ 316426.464, 6181837.581 ], [ 316249.038, 6181753.664 ], [ 316080.691, 6181652.761 ], [ 315923.045, 6181535.843 ], [ 315777.618, 6181404.035 ], [ 315645.81, 6181258.608 ], [ 315528.892, 6181100.962 ], [ 315427.989, 6180932.615 ], [ 315344.072, 6180755.189 ], [ 315277.95, 6180570.391 ], [ 315230.261, 6180380.002 ], [ 315201.462, 6180185.856 ], [ 315191.831, 6179989.822 ], [ 315201.462, 6179793.787 ], [ 315230.261, 6179599.641 ], [ 315277.95, 6179409.252 ], [ 315344.072, 6179224.455 ], [ 315427.989, 6179047.028 ], [ 315528.892, 6178878.681 ], [ 315645.81, 6178721.035 ], [ 315777.618, 6178575.608 ], [ 315923.045, 6178443.801 ], [ 316080.691, 6178326.882 ], [ 316249.038, 6178225.979 ], [ 316426.464, 6178142.063 ], [ 316611.262, 6178075.941 ], [ 316801.65, 6178028.251 ], [ 316995.797, 6177999.452 ], [ 317191.831, 6177989.822 ], [ 317387.865, 6177999.452 ], [ 317582.012, 6178028.251 ], [ 317772.4, 6178075.941 ], [ 317957.198, 6178142.063 ], [ 318134.625, 6178225.979 ], [ 318302.972, 6178326.882 ], [ 318460.618, 6178443.801 ], [ 318606.045, 6178575.608 ], [ 318737.852, 6178721.035 ], [ 318854.77, 6178878.681 ], [ 318955.674, 6179047.028 ], [ 319039.59, 6179224.455 ], [ 319105.712, 6179409.252 ], [ 319153.402, 6179599.641 ], [ 319182.201, 6179793.787 ], [ 319191.831, 6179989.822 ], [ 319182.201, 6180185.856 ] ] ] } }
]
}
