{
"type": "FeatureCollection",
"name": "channel_bed",
"crs": { "type": "name", "properties": { "name": "urn:ogc:def:crs:EPSG::3346" } },
"xy_coordinate_resolution": 0.001,
"features": [
{ "type": "Feature", "properties": { "channel": "strait", "chainage_m": 0.0, "rivbed": -12.0 }, "geometry": { "type": "Point", "coordinates": [ 320550.0, 6168750.0 ] } },
{ "type": "Feature", "properties": { "channel": "strait", "chainage_m": 194.3, "rivbed": -12.0 }, "geometry": { "type": "Point", "coordinates": [ 320664.286, 6168907.143 ] } },
{ "type": "Feature", "properties": { "channel": "strait", "chainage_m": 388.6, "rivbed": -12.0 }, "geometry": { "type": "Point", "coordinates": [ 320778.571, 6169064.286 ] } },
{ "type": "Feature", "properties": { "channel": "strait", "chainage_m": 582.9, "rivbed": -12.0 }, "geometry": { "type": "Point", "coordinates": [ 320892.857, 6169221.429 ] } },
{ "type": "Feature", "properties": { "channel": "strait", "chainage_m": 777.2, "rivbed": -12.0 }, "geometry": { "type": "Point", "coordinates": [ 321007.143, 6169378.571 ] } },
{ "type": "Feature", "properties": { "channel": "strait", "chainage_m": 971.5, "rivbed": -12.0 }, "geometry": { "type": "Point", "coordinates": [ 321121.429, 6169535.714 ] } },
{ "type": "Feature", "properties": { "channel": "strait", "chainage_m": 1165.8, "rivbed": -12.0 }, "geometry": { "type": "Point", "coordinates": [ 321235.714, 6169692.857 ] } },
{ "type": "Feature", "properties": { "channel": "strait", "chainage_m": 1360.1, "rivbed": -12.0 }, "geometry": { "type": "Point", "coordinates": [ 321350.0, 6169850.0 ] } },
{ "type": "Feature", "properties": { "channel": "strait", "chainage_m": 1560.1, "rivbed": -12.0 }, "geometry": { "type": "Point", "coordinates": [ 321350.0, 6170050.0 ] } },
{ "type": "Feature", "properties": { "channel": "strait", "chainage_m": 1760.1, "rivbed": -12.0 }, "geometry": { "type": "Point", "coordinates": [ 321350.0, 6170250.0 ] } },
{ "type": "Feature", "properties": { "channel": "strait", "chainage_m": 1960.1, "rivbed": -12.0 }, "geometry": { "type": "Point", "coordinates": [ 321350.0, 6170450.0 ] } },
{ "type": "Feature", "properties": { "channel": "strait", "chainage_m": 2160.1, "rivbed": -12.0 }, "geometry": { "type": "Point", "coordinates": [ 321350.0, 6170650.0 ] } },
{ "type": "Feature", "properties": { "channel": "strait", "chainage_m": 2360.1, "rivbed": -12.0 }, "geometry": { "type": "Point", "coordinates": [ 321350.0, 6170850.0 ] } },
{ "type": "Feature", "properties": { "channel": "strait", "chainage_m": 2560.1, "rivbed": -12.0 }, "geometry": { "type": "Point", "coordinates": [ 321350.0, 6171050.0 ] } },
{ "type": "Feature", "properties": { "channel": "strait", "chainage_m": 2760.1, "rivbed": -12.0 }, "geometry": { "type": "Point", "coordinates": [ 321350.0, 6171250.0 ] } },
{ "type": "Feature", "properties": { "channel": "strait", "chainage_m": 2960.1, "rivbed": -12.0 }, "geometry": { "type": "Point", "coordinates": [ 321350.0, 6171450.0 ] } },
{ "type": "Feature", "properties": { "channel": "strait", "chainage_m": 3160.1, "rivbed": -12.0 }, "geometry": { "type": "Point", "coordinates": [ 321350.0, 6171650.0 ] } },
{ "type": "Feature", "properties": { "channel": "strait", "chainage_m": 3360.1, "rivbed": -12.0 }, "geometry": { "type": "Point", "coordinates": [ 321350.0, 6171850.0 ] } },
{ "type": "Feature", "properties": { "channel": "strait", "chainage_m": 3560.1, "rivbed": -12.0 }, "geometry": { "type": "Point", "coordinates": [ 321350.0, 6172050.0 ] } },
{ "type": "Feature", "properties": { "channel": "strait", "chainage_m": 3760.1, "rivbed": -12.0 }, "geometry": { "type": "Point", "coordinates": [ 321350.0, 6172250.0 ] } },
{ "type": "Feature", "properties": { "channel": "strait", "chainage_m": 3960.1, "rivbed": -12.0 }, "geometry": { "type": "Point", "coordinates": [ 321350.0, 6172450.0 ] } },
{ "type": "Feature", "properties": { "channel": "strait", "chainage_m": 4160.1, "rivbed": -12.0 }, "geometry": { "type": "Point", "coordinates": [ 321350.0, 6172650.0 ] } },
{ "type": "Feature", "properties": { "channel": "strait", "chainage_m": 4360.1, "rivbed": -12.0 }, "geometry": { "type": "Point", "coordinates": [ 321350.0, 6172850.0 ] } },
{ "type": "Feature", "properties": { "channel": "strait", "chainage_m": 4560.1, "rivbed": -12.0 }, "geometry": { "type": "Point", "coordinates": [ 321350.0, 6173050.0 ] } },
{ "type": "Feature", "properties": { "channel": "strait", "chainage_m": 4739.7, "rivbed": -12.0 }, "geometry": { "type": "Point", "coordinates": [ 321283.333, 6173216.667 ] } },
{ "type": "Feature", "properties": { "channel": "strait", "chainage_m": 4919.2, "rivbed": -12.0 }, "geometry": { "type": "Point", "coordinates": [ 321216.667, 6173383.333 ] } },
{ "type": "Feature", "properties": { "channel": "strait", "chainage_m": 5098.7, "rivbed": -12.0 }, "geometry": { "type": "Point", "coordinates": [ 321150.0, 6173550.0 ] } },
{ "type": "Feature", "properties": { "channel": "strait", "chainage_m": 5278.9, "rivbed": -12.0 }, "geometry": { "type": "Point", "coordinates": [ 321140.0, 6173730.0 ] } },
{ "type": "Feature", "properties": { "channel": "strait", "chainage_m": 5459.2, "rivbed": -12.0 }, "geometry": { "type": "Point", "coordinates": [ 321130.0, 6173910.0 ] } },
{ "type": "Feature", "properties": { "channel": "strait", "chainage_m": 5639.5, "rivbed": -12.0 }, "geometry": { "type": "Point", "coordinates": [ 321120.0, 6174090.0 ] } },
{ "type": "Feature", "properties": { "channel": "strait", "chainage_m": 5819.8, "rivbed": -12.0 }, "geometry": { "type": "Point", "coordinates": [ 321110.0, 6174270.0 ] } },
{ "type": "Feature", "properties": { "channel": "strait", "chainage_m": 6000.1, "rivbed": -12.0 }, "geometry": { "type": "Point", "coordinates": [ 321100.0, 6174450.0 ] } },
{ "type": "Feature", "properties": { "channel": "strait", "chainage_m": 6180.3, "rivbed": -12.0 }, "geometry": { "type": "Point", "coordinates": [ 321090.0, 6174630.0 ] } },
{ "type": "Feature", "properties": { "channel": "strait", "chainage_m": 6360.6, "rivbed": -12.0 }, "geometry": { "type": "Point", "coordinates": [ 321080.0, 6174810.0 ] } },
{ "type": "Feature", "properties": { "channel": "strait", "chainage_m": 6540.9, "rivbed": -12.0 }, "geometry": { "type": "Point", "coordinates": [ 321070.0, 6174990.0 ] } },
{ "type": "Feature", "properties": { "channel": "strait", "chainage_m": 6721.2, "rivbed": -12.0 }, "geometry": { "type": "Point", "coordinates": [ 321060.0, 6175170.0 ] } },
{ "type": "Feature", "properties": { "channel": "strait", "chainage_m": 6901.4, "rivbed": -12.0 }, "geometry": { "type": "Point", "coordinates": [ 321050.0, 6175350.0 ] } },
{ "type": "Feature", "properties": { "channel": "strait", "chainage_m": 7091.2, "rivbed": -12.0 }, "geometry": { "type": "Point", "coordinates": [ 320990.0, 6175530.0 ] } },
{ "type": "Feature", "properties": { "channel": "strait", "chainage_m": 7280.9, "rivbed": -12.0 }, "geometry": { "type": "Point", "coordinates": [ 320930.0, 6175710.0 ] } },
{ "type": "Feature", "properties": { "channel": "strait", "chainage_m": 7470.6, "rivbed": -12.0 }, "geometry": { "type": "Point", "coordinates": [ 320870.0, 6175890.0 ] } },
{ "type": "Feature", "properties": { "channel": "strait", "chainage_m": 7660.4, "rivbed": -12.0 }, "geometry": { "type": "Point", "coordinates": [ 320810.0, 6176070.0 ] } },
{ "type": "Feature", "properties": { "channel": "strait", "chainage_m": 7850.1, "rivbed": -12.0 }, "geometry": { "type": "Point", "coordinates": [ 320750.0, 6176250.0 ] } },
{ "type": "Feature", "properties": { "channel": "strait", "chainage_m": 8039.9, "rivbed": -12.0 }, "geometry": { "type": "Point", "coordinates": [ 320690.0, 6176430.0 ] } },
{ "type": "Feature", "properties": { "channel": "strait", "chainage_m": 8229.6, "rivbed": -12.0 }, "geometry": { "type": "Point", "coordinates": [ 320630.0, 6176610.0 ] } },
{ "type": "Feature", "properties": { "channel": "strait", "chainage_m": 8419.3, "rivbed": -12.0 }, "geometry": { "type": "Point", "coordinates": [ 320570.0, 6176790.0 ] } },
{ "type": "Feature", "properties": { "channel": "strait", "chainage_m": 8609.1, "rivbed": -12.0 }, "geometry": { "type": "Point", "coordinates": [ 320510.0, 6176970.0 ] } },
{ "type": "Feature", "properties": { "channel": "strait", "chainage_m": 8798.8, "rivbed": -12.0 }, "geometry": { "type": "Point", "coordinates": [ 320450.0, 6177150.0 ] } },
{ "type": "Feature", "properties": { "channel": "strait", "chainage_m": 8987.4, "rivbed": -12.0 }, "geometry": { "type": "Point", "coordinates": [ 320316.667, 6177283.333 ] } },
{ "type": "Feature", "properties": { "channel": "strait", "chainage_m": 9175.9, "rivbed": -12.0 }, "geometry": { "type": "Point", "coordinates": [ 320183.333, 6177416.667 ] } },
{ "type": "Feature", "properties": { "channel": "strait", "chainage_m": 9364.5, "rivbed": -12.0 }, "geometry": { "type": "Point", "coordinates": [ 320050.0, 6177550.0 ] } },
{ "type": "Feature", "properties": { "channel": "strait", "chainage_m": 9553.1, "rivbed": -12.0 }, "geometry": { "type": "Point", "coordinates": [ 319916.667, 6177683.333 ] } },
{ "type": "Feature", "properties": { "channel": "strait", "chainage_m": 9741.6, "rivbed": -12.0 }, "geometry": { "type": "Point", "coordinates": [ 319783.333, 6177816.667 ] } },
{ "type": "Feature", "properties": { "channel": "strait", "chainage_m": 9930.2, "rivbed": -12.0 }, "geometry": { "type": "Point", "coordinates": [ 319650.0, 6177950.0 ] } },
{ "type": "Feature", "properties": { "channel": "strait", "chainage_m": 10110.2, "rivbed": -12.0 }, "geometry": { "type": "Point", "coordinates": [ 319470.0, 6177950.0 ] } },
{ "type": "Feature", "properties": { "channel": "strait", "chainage_m": 10290.2, "rivbed": -12.0 }, "geometry": { "type": "Point", "coordinates": [ 319290.0, 6177950.0 ] } },
{ "type": "Feature", "properties": { "channel": "strait", "chainage_m": 10470.2, "rivbed": -12.0 }, "geometry": { "type": "Point", "coordinates": [ 319110.0, 6177950.0 ] } },
{ "type": "Feature", "properties": { "channel": "strait", "chainage_m": 10650.2, "rivbed": -12.0 }, "geometry": { "type": "Point", "coordinates": [ 318930.0, 6177950.0 ] } },
{ "type": "Feature", "properties": { "channel": "strait", "chainage_m": 10830.2, "rivbed": -12.0 }, "geometry": { "type": "Point", "coordinates": [ 318750.0, 6177950.0 ] } },
{ "type": "Feature", "properties": { "channel": "atmata", "chainage_m": 0.0, "rivbed": -5.414 }, "geometry": { "type": "Point", "coordinates": [ 333893.472, 6131818.608 ] } },
{ "type": "Feature", "properties": { "channel": "atmata", "chainage_m": 104.6, "rivbed": -6.055 }, "geometry": { "type": "Point", "coordinates": [ 333855.601, 6131916.083 ] } },
{ "type": "Feature", "properties": { "channel": "atmata", "chainage_m": 209.1, "rivbed": -4.445 }, "geometry": { "type": "Point", "coordinates": [ 333817.731, 6132013.558 ] } },
{ "type": "Feature", "properties": { "channel": "atmata", "chainage_m": 358.1, "rivbed": -4.117 }, "geometry": { "type": "Point", "coordinates": [ 333772.584, 6132155.458 ] } },
{ "type": "Feature", "properties": { "channel": "atmata", "chainage_m": 511.8, "rivbed": -4.047 }, "geometry": { "type": "Point", "coordinates": [ 333742.787, 6132306.309 ] } },
{ "type": "Feature", "properties": { "channel": "atmata", "chainage_m": 632.5, "rivbed": -4.0 }, "geometry": { "type": "Point", "coordinates": [ 333732.303, 6132426.483 ] } },
{ "type": "Feature", "properties": { "channel": "atmata", "chainage_m": 779.4, "rivbed": -4.367 }, "geometry": { "type": "Point", "coordinates": [ 333732.376, 6132573.481 ] } },
{ "type": "Feature", "properties": { "channel": "atmata", "chainage_m": 959.1, "rivbed": -4.531 }, "geometry": { "type": "Point", "coordinates": [ 333745.25, 6132752.65 ] } },
{ "type": "Feature", "properties": { "channel": "atmata", "chainage_m": 1138.7, "rivbed": -4.0 }, "geometry": { "type": "Point", "coordinates": [ 333758.124, 6132931.819 ] } },
{ "type": "Feature", "properties": { "channel": "atmata", "chainage_m": 1242.3, "rivbed": -4.0 }, "geometry": { "type": "Point", "coordinates": [ 333768.818, 6133034.845 ] } },
{ "type": "Feature", "properties": { "channel": "atmata", "chainage_m": 1345.9, "rivbed": -4.0 }, "geometry": { "type": "Point", "coordinates": [ 333779.512, 6133137.872 ] } },
{ "type": "Feature", "properties": { "channel": "atmata", "chainage_m": 1530.7, "rivbed": -4.0 }, "geometry": { "type": "Point", "coordinates": [ 333808.198, 6133320.508 ] } },
{ "type": "Feature", "properties": { "channel": "atmata", "chainage_m": 1729.7, "rivbed": -4.0 }, "geometry": { "type": "Point", "coordinates": [ 333857.721, 6133513.248 ] } },
{ "type": "Feature", "properties": { "channel": "atmata", "chainage_m": 1897.0, "rivbed": -4.148 }, "geometry": { "type": "Point", "coordinates": [ 333900.613, 6133674.926 ] } },
{ "type": "Feature", "properties": { "channel": "atmata", "chainage_m": 2040.4, "rivbed": -5.117 }, "geometry": { "type": "Point", "coordinates": [ 333925.012, 6133816.196 ] } },
{ "type": "Feature", "properties": { "channel": "atmata", "chainage_m": 2183.7, "rivbed": -4.656 }, "geometry": { "type": "Point", "coordinates": [ 333949.411, 6133957.467 ] } },
{ "type": "Feature", "properties": { "channel": "atmata", "chainage_m": 2317.1, "rivbed": -4.289 }, "geometry": { "type": "Point", "coordinates": [ 333980.787, 6134087.055 ] } },
{ "type": "Feature", "properties": { "channel": "atmata", "chainage_m": 2450.4, "rivbed": -4.0 }, "geometry": { "type": "Point", "coordinates": [ 334012.164, 6134216.642 ] } },
{ "type": "Feature", "properties": { "channel": "atmata", "chainage_m": 2644.6, "rivbed": -4.0 }, "geometry": { "type": "Point", "coordinates": [ 334075.128, 6134400.377 ] } },
{ "type": "Feature", "properties": { "channel": "atmata", "chainage_m": 2800.7, "rivbed": -4.0 }, "geometry": { "type": "Point", "coordinates": [ 334114.882, 6134551.256 ] } },
{ "type": "Feature", "properties": { "channel": "atmata", "chainage_m": 2938.6, "rivbed": -4.0 }, "geometry": { "type": "Point", "coordinates": [ 334133.643, 6134687.958 ] } },
{ "type": "Feature", "properties": { "channel": "atmata", "chainage_m": 3077.5, "rivbed": -4.0 }, "geometry": { "type": "Point", "coordinates": [ 334130.678, 6134826.825 ] } },
{ "type": "Feature", "properties": { "channel": "atmata", "chainage_m": 3216.6, "rivbed": -4.742 }, "geometry": { "type": "Point", "coordinates": [ 334114.048, 6134964.845 ] } },
{ "type": "Feature", "properties": { "channel": "atmata", "chainage_m": 3414.9, "rivbed": -5.664 }, "geometry": { "type": "Point", "coordinates": [ 334065.372, 6135157.118 ] } },
{ "type": "Feature", "properties": { "channel": "atmata", "chainage_m": 3566.1, "rivbed": -5.492 }, "geometry": { "type": "Point", "coordinates": [ 334005.842, 6135296.059 ] } },
{ "type": "Feature", "properties": { "channel": "atmata", "chainage_m": 3733.8, "rivbed": -5.297 }, "geometry": { "type": "Point", "coordinates": [ 333928.973, 6135445.169 ] } },
{ "type": "Feature", "properties": { "channel": "atmata", "chainage_m": 3896.0, "rivbed": -5.008 }, "geometry": { "type": "Point", "coordinates": [ 333847.343, 6135585.274 ] } },
{ "type": "Feature", "properties": { "channel": "atmata", "chainage_m": 4058.1, "rivbed": -4.398 }, "geometry": { "type": "Point", "coordinates": [ 333765.713, 6135725.379 ] } },
{ "type": "Feature", "properties": { "channel": "atmata", "chainage_m": 4174.1, "rivbed": -4.0 }, "geometry": { "type": "Point", "coordinates": [ 333703.985, 6135823.589 ] } },
{ "type": "Feature", "properties": { "channel": "atmata", "chainage_m": 4290.1, "rivbed": -4.0 }, "geometry": { "type": "Point", "coordinates": [ 333642.258, 6135921.799 ] } },
{ "type": "Feature", "properties": { "channel": "atmata", "chainage_m": 4398.9, "rivbed": -4.0 }, "geometry": { "type": "Point", "coordinates": [ 333579.15, 6136010.369 ] } },
{ "type": "Feature", "properties": { "channel": "atmata", "chainage_m": 4507.6, "rivbed": -4.0 }, "geometry": { "type": "Point", "coordinates": [ 333516.043, 6136098.939 ] } },
{ "type": "Feature", "properties": { "channel": "atmata", "chainage_m": 4656.6, "rivbed": -4.0 }, "geometry": { "type": "Point", "coordinates": [ 333418.757, 6136211.747 ] } },
{ "type": "Feature", "properties": { "channel": "atmata", "chainage_m": 4783.9, "rivbed": -4.0 }, "geometry": { "type": "Point", "coordinates": [ 333335.86, 6136308.372 ] } },
{ "type": "Feature", "properties": { "channel": "atmata", "chainage_m": 4911.2, "rivbed": -4.0 }, "geometry": { "type": "Point", "coordinates": [ 333252.963, 6136404.997 ] } },
{ "type": "Feature", "properties": { "channel": "atmata", "chainage_m": 5047.6, "rivbed": -4.0 }, "geometry": { "type": "Point", "coordinates": [ 333169.828, 6136513.189 ] } },
{ "type": "Feature", "properties": { "channel": "atmata", "chainage_m": 5184.1, "rivbed": -4.0 }, "geometry": { "type": "Point", "coordinates": [ 333086.692, 6136621.381 ] } },
{ "type": "Feature", "properties": { "channel": "atmata", "chainage_m": 5328.0, "rivbed": -4.0 }, "geometry": { "type": "Point", "coordinates": [ 332998.669, 6136735.194 ] } },
{ "type": "Feature", "properties": { "channel": "atmata", "chainage_m": 5471.9, "rivbed": -4.0 }, "geometry": { "type": "Point", "coordinates": [ 332910.645, 6136849.006 ] } },
{ "type": "Feature", "properties": { "channel": "atmata", "chainage_m": 5598.6, "rivbed": -4.0 }, "geometry": { "type": "Point", "coordinates": [ 332830.556, 6136947.218 ] } },
{ "type": "Feature", "properties": { "channel": "atmata", "chainage_m": 5725.3, "rivbed": -4.0 }, "geometry": { "type": "Point", "coordinates": [ 332750.466, 6137045.43 ] } },
{ "type": "Feature", "properties": { "channel": "atmata", "chainage_m": 5901.4, "rivbed": -4.0 }, "geometry": { "type": "Point", "coordinates": [ 332627.139, 6137171.122 ] } },
{ "type": "Feature", "properties": { "channel": "atmata", "chainage_m": 6039.4, "rivbed": -4.344 }, "geometry": { "type": "Point", "coordinates": [ 332520.063, 6137258.128 ] } },
{ "type": "Feature", "properties": { "channel": "atmata", "chainage_m": 6138.6, "rivbed": -4.805 }, "geometry": { "type": "Point", "coordinates": [ 332439.123, 6137315.575 ] } },
{ "type": "Feature", "properties": { "channel": "atmata", "chainage_m": 6253.1, "rivbed": -5.211 }, "geometry": { "type": "Point", "coordinates": [ 332337.569, 6137368.381 ] } },
{ "type": "Feature", "properties": { "channel": "atmata", "chainage_m": 6407.6, "rivbed": -5.414 }, "geometry": { "type": "Point", "coordinates": [ 332192.427, 6137421.485 ] } },
{ "type": "Feature", "properties": { "channel": "atmata", "chainage_m": 6591.2, "rivbed": -5.039 }, "geometry": { "type": "Point", "coordinates": [ 332015.836, 6137471.713 ] } },
{ "type": "Feature", "properties": { "channel": "atmata", "chainage_m": 6698.1, "rivbed": -4.883 }, "geometry": { "type": "Point", "coordinates": [ 331911.036, 6137492.696 ] } },
{ "type": "Feature", "properties": { "channel": "atmata", "chainage_m": 6805.0, "rivbed": -4.812 }, "geometry": { "type": "Point", "coordinates": [ 331806.236, 6137513.679 ] } },
{ "type": "Feature", "properties": { "channel": "atmata", "chainage_m": 6925.9, "rivbed": -4.617 }, "geometry": { "type": "Point", "coordinates": [ 331686.186, 6137527.772 ] } },
{ "type": "Feature", "properties": { "channel": "atmata", "chainage_m": 7046.7, "rivbed": -4.281 }, "geometry": { "type": "Point", "coordinates": [ 331566.135, 6137541.865 ] } },
{ "type": "Feature", "properties": { "channel": "atmata", "chainage_m": 7174.1, "rivbed": -4.039 }, "geometry": { "type": "Point", "coordinates": [ 331439.049, 6137550.116 ] } },
{ "type": "Feature", "properties": { "channel": "atmata", "chainage_m": 7301.4, "rivbed": -4.0 }, "geometry": { "type": "Point", "coordinates": [ 331311.963, 6137558.367 ] } },
{ "type": "Feature", "properties": { "channel": "atmata", "chainage_m": 7421.3, "rivbed": -4.0 }, "geometry": { "type": "Point", "coordinates": [ 331192.36, 6137566.345 ] } },
{ "type": "Feature", "properties": { "channel": "atmata", "chainage_m": 7541.2, "rivbed": -4.0 }, "geometry": { "type": "Point", "coordinates": [ 331072.756, 6137574.323 ] } },
{ "type": "Feature", "properties": { "channel": "atmata", "chainage_m": 7659.8, "rivbed": -4.0 }, "geometry": { "type": "Point", "coordinates": [ 330954.62, 6137584.964 ] } },
{ "type": "Feature", "properties": { "channel": "atmata", "chainage_m": 7778.4, "rivbed": -4.0 }, "geometry": { "type": "Point", "coordinates": [ 330836.484, 6137595.605 ] } },
{ "type": "Feature", "properties": { "channel": "atmata", "chainage_m": 7902.7, "rivbed": -4.0 }, "geometry": { "type": "Point", "coordinates": [ 330713.062, 6137610.534 ] } },
{ "type": "Feature", "properties": { "channel": "atmata", "chainage_m": 8027.1, "rivbed": -4.0 }, "geometry": { "type": "Point", "coordinates": [ 330589.64, 6137625.463 ] } },
{ "type": "Feature", "properties": { "channel": "atmata", "chainage_m": 8182.9, "rivbed": -4.07 }, "geometry": { "type": "Point", "coordinates": [ 330435.055, 6137644.995 ] } },
{ "type": "Feature", "properties": { "channel": "atmata", "chainage_m": 8338.7, "rivbed": -4.211 }, "geometry": { "type": "Point", "coordinates": [ 330280.47, 6137664.527 ] } },
{ "type": "Feature", "properties": { "channel": "atmata", "chainage_m": 8483.1, "rivbed": -4.461 }, "geometry": { "type": "Point", "coordinates": [ 330138.395, 6137690.391 ] } },
{ "type": "Feature", "properties": { "channel": "atmata", "chainage_m": 8627.5, "rivbed": -4.383 }, "geometry": { "type": "Point", "coordinates": [ 329996.321, 6137716.255 ] } },
{ "type": "Feature", "properties": { "channel": "atmata", "chainage_m": 8795.1, "rivbed": -4.188 }, "geometry": { "type": "Point", "coordinates": [ 329832.875, 6137753.144 ] } },
{ "type": "Feature", "properties": { "channel": "atmata", "chainage_m": 8962.6, "rivbed": -4.461 }, "geometry": { "type": "Point", "coordinates": [ 329669.429, 6137790.032 ] } },
{ "type": "Feature", "properties": { "channel": "atmata", "chainage_m": 9084.8, "rivbed": -4.055 }, "geometry": { "type": "Point", "coordinates": [ 329549.809, 6137815.048 ] } },
{ "type": "Feature", "properties": { "channel": "atmata", "chainage_m": 9207.0, "rivbed": -4.039 }, "geometry": { "type": "Point", "coordinates": [ 329430.19, 6137840.064 ] } },
{ "type": "Feature", "properties": { "channel": "atmata", "chainage_m": 9402.8, "rivbed": -4.695 }, "geometry": { "type": "Point", "coordinates": [ 329236.421, 6137867.948 ] } },
{ "type": "Feature", "properties": { "channel": "atmata", "chainage_m": 9504.9, "rivbed": -5.078 }, "geometry": { "type": "Point", "coordinates": [ 329134.691, 6137876.371 ] } },
{ "type": "Feature", "properties": { "channel": "atmata", "chainage_m": 9607.0, "rivbed": -5.922 }, "geometry": { "type": "Point", "coordinates": [ 329032.962, 6137884.794 ] } },
{ "type": "Feature", "properties": { "channel": "atmata", "chainage_m": 9720.8, "rivbed": -6.484 }, "geometry": { "type": "Point", "coordinates": [ 328919.078, 6137885.402 ] } },
{ "type": "Feature", "properties": { "channel": "atmata", "chainage_m": 9834.7, "rivbed": -5.734 }, "geometry": { "type": "Point", "coordinates": [ 328805.193, 6137886.011 ] } },
{ "type": "Feature", "properties": { "channel": "atmata", "chainage_m": 10032.8, "rivbed": -4.344 }, "geometry": { "type": "Point", "coordinates": [ 328607.431, 6137874.107 ] } },
{ "type": "Feature", "properties": { "channel": "atmata", "chainage_m": 10171.2, "rivbed": -4.672 }, "geometry": { "type": "Point", "coordinates": [ 328469.664, 6137861.615 ] } },
{ "type": "Feature", "properties": { "channel": "atmata", "chainage_m": 10309.5, "rivbed": -4.586 }, "geometry": { "type": "Point", "coordinates": [ 328331.898, 6137849.122 ] } },
{ "type": "Feature", "properties": { "channel": "atmata", "chainage_m": 10441.3, "rivbed": -5.922 }, "geometry": { "type": "Point", "coordinates": [ 328201.123, 6137832.455 ] } },
{ "type": "Feature", "properties": { "channel": "atmata", "chainage_m": 10573.2, "rivbed": -6.039 }, "geometry": { "type": "Point", "coordinates": [ 328070.348, 6137815.788 ] } },
{ "type": "Feature", "properties": { "channel": "atmata", "chainage_m": 10680.1, "rivbed": -5.422 }, "geometry": { "type": "Point", "coordinates": [ 327964.766, 6137798.83 ] } },
{ "type": "Feature", "properties": { "channel": "atmata", "chainage_m": 10787.0, "rivbed": -5.242 }, "geometry": { "type": "Point", "coordinates": [ 327859.184, 6137781.873 ] } },
{ "type": "Feature", "properties": { "channel": "atmata", "chainage_m": 10893.1, "rivbed": -5.055 }, "geometry": { "type": "Point", "coordinates": [ 327756.032, 6137757.343 ] } },
{ "type": "Feature", "properties": { "channel": "atmata", "chainage_m": 10999.1, "rivbed": -4.961 }, "geometry": { "type": "Point", "coordinates": [ 327652.88, 6137732.814 ] } },
{ "type": "Feature", "properties": { "channel": "atmata", "chainage_m": 11111.4, "rivbed": -5.0 }, "geometry": { "type": "Point", "coordinates": [ 327545.606, 6137699.719 ] } },
{ "type": "Feature", "properties": { "channel": "atmata", "chainage_m": 11223.6, "rivbed": -5.0 }, "geometry": { "type": "Point", "coordinates": [ 327438.331, 6137666.625 ] } },
{ "type": "Feature", "properties": { "channel": "atmata", "chainage_m": 11333.9, "rivbed": -5.281 }, "geometry": { "type": "Point", "coordinates": [ 327336.24, 6137624.964 ] } },
{ "type": "Feature", "properties": { "channel": "atmata", "chainage_m": 11444.2, "rivbed": -5.688 }, "geometry": { "type": "Point", "coordinates": [ 327234.148, 6137583.302 ] } },
{ "type": "Feature", "properties": { "channel": "atmata", "chainage_m": 11588.4, "rivbed": -6.086 }, "geometry": { "type": "Point", "coordinates": [ 327103.645, 6137521.787 ] } },
{ "type": "Feature", "properties": { "channel": "atmata", "chainage_m": 11732.7, "rivbed": -5.961 }, "geometry": { "type": "Point", "coordinates": [ 326973.142, 6137460.272 ] } },
{ "type": "Feature", "properties": { "channel": "atmata", "chainage_m": 11853.7, "rivbed": -5.797 }, "geometry": { "type": "Point", "coordinates": [ 326865.372, 6137405.343 ] } },
{ "type": "Feature", "properties": { "channel": "atmata", "chainage_m": 11974.6, "rivbed": -5.539 }, "geometry": { "type": "Point", "coordinates": [ 326757.603, 6137350.415 ] } },
{ "type": "Feature", "properties": { "channel": "atmata", "chainage_m": 12117.4, "rivbed": -5.281 }, "geometry": { "type": "Point", "coordinates": [ 326626.591, 6137293.692 ] } },
{ "type": "Feature", "properties": { "channel": "atmata", "chainage_m": 12260.2, "rivbed": -4.477 }, "geometry": { "type": "Point", "coordinates": [ 326495.579, 6137236.968 ] } },
{ "type": "Feature", "properties": { "channel": "atmata", "chainage_m": 12411.7, "rivbed": -4.0 }, "geometry": { "type": "Point", "coordinates": [ 326352.555, 6137186.837 ] } },
{ "type": "Feature", "properties": { "channel": "atmata", "chainage_m": 12563.3, "rivbed": -4.0 }, "geometry": { "type": "Point", "coordinates": [ 326209.531, 6137136.706 ] } },
{ "type": "Feature", "properties": { "channel": "atmata", "chainage_m": 12759.0, "rivbed": -4.109 }, "geometry": { "type": "Point", "coordinates": [ 326021.978, 6137080.862 ] } },
{ "type": "Feature", "properties": { "channel": "atmata", "chainage_m": 12954.6, "rivbed": -4.562 }, "geometry": { "type": "Point", "coordinates": [ 325834.426, 6137025.018 ] } },
{ "type": "Feature", "properties": { "channel": "atmata", "chainage_m": 13093.0, "rivbed": -4.312 }, "geometry": { "type": "Point", "coordinates": [ 325699.259, 6136995.614 ] } },
{ "type": "Feature", "properties": { "channel": "atmata", "chainage_m": 13231.3, "rivbed": -4.133 }, "geometry": { "type": "Point", "coordinates": [ 325564.092, 6136966.21 ] } },
{ "type": "Feature", "properties": { "channel": "atmata", "chainage_m": 13369.6, "rivbed": -4.32 }, "geometry": { "type": "Point", "coordinates": [ 325428.925, 6136936.806 ] } },
{ "type": "Feature", "properties": { "channel": "skirvyte", "chainage_m": 0.0, "rivbed": -5.414 }, "geometry": { "type": "Point", "coordinates": [ 333893.472, 6131818.608 ] } },
{ "type": "Feature", "properties": { "channel": "skirvyte", "chainage_m": 124.8, "rivbed": -6.438 }, "geometry": { "type": "Point", "coordinates": [ 333777.834, 6131865.639 ] } },
{ "type": "Feature", "properties": { "channel": "skirvyte", "chainage_m": 165.1, "rivbed": -6.695 }, "geometry": { "type": "Point", "coordinates": [ 333737.926, 6131871.061 ] } },
{ "type": "Feature", "properties": { "channel": "skirvyte", "chainage_m": 215.5, "rivbed": -7.062 }, "geometry": { "type": "Point", "coordinates": [ 333687.704, 6131874.921 ] } },
{ "type": "Feature", "properties": { "channel": "skirvyte", "chainage_m": 253.1, "rivbed": -7.375 }, "geometry": { "type": "Point", "coordinates": [ 333650.108, 6131876.057 ] } },
{ "type": "Feature", "properties": { "channel": "skirvyte", "chainage_m": 304.8, "rivbed": -7.82 }, "geometry": { "type": "Point", "coordinates": [ 333600.341, 6131862.118 ] } },
{ "type": "Feature", "properties": { "channel": "skirvyte", "chainage_m": 356.6, "rivbed": -8.062 }, "geometry": { "type": "Point", "coordinates": [ 333556.04, 6131835.26 ] } },
{ "type": "Feature", "properties": { "channel": "skirvyte", "chainage_m": 430.9, "rivbed": -8.703 }, "geometry": { "type": "Point", "coordinates": [ 333500.264, 6131786.172 ] } },
{ "type": "Feature", "properties": { "channel": "skirvyte", "chainage_m": 509.8, "rivbed": -8.961 }, "geometry": { "type": "Point", "coordinates": [ 333465.512, 6131715.3 ] } },
{ "type": "Feature", "properties": { "channel": "skirvyte", "chainage_m": 655.9, "rivbed": -7.594 }, "geometry": { "type": "Point", "coordinates": [ 333430.257, 6131573.498 ] } },
{ "type": "Feature", "properties": { "channel": "skirvyte", "chainage_m": 802.1, "rivbed": -6.188 }, "geometry": { "type": "Point", "coordinates": [ 333395.001, 6131431.697 ] } },
{ "type": "Feature", "properties": { "channel": "skirvyte", "chainage_m": 935.2, "rivbed": -4.914 }, "geometry": { "type": "Point", "coordinates": [ 333359.381, 6131303.431 ] } },
{ "type": "Feature", "properties": { "channel": "skirvyte", "chainage_m": 967.1, "rivbed": -4.812 }, "geometry": { "type": "Point", "coordinates": [ 333347.419, 6131273.875 ] } },
{ "type": "Feature", "properties": { "channel": "skirvyte", "chainage_m": 1050.6, "rivbed": -4.531 }, "geometry": { "type": "Point", "coordinates": [ 333297.032, 6131207.226 ] } },
{ "type": "Feature", "properties": { "channel": "skirvyte", "chainage_m": 1082.1, "rivbed": -4.391 }, "geometry": { "type": "Point", "coordinates": [ 333273.349, 6131186.402 ] } },
{ "type": "Feature", "properties": { "channel": "skirvyte", "chainage_m": 1090.1, "rivbed": -4.344 }, "geometry": { "type": "Point", "coordinates": [ 333267.404, 6131181.178 ] } },
{ "type": "Feature", "properties": { "channel": "skirvyte", "chainage_m": 1128.6, "rivbed": -4.047 }, "geometry": { "type": "Point", "coordinates": [ 333235.437, 6131159.741 ] } },
{ "type": "Feature", "properties": { "channel": "skirvyte", "chainage_m": 1172.1, "rivbed": -3.727 }, "geometry": { "type": "Point", "coordinates": [ 333196.827, 6131139.703 ] } },
{ "type": "Feature", "properties": { "channel": "skirvyte", "chainage_m": 1260.8, "rivbed": -3.0 }, "geometry": { "type": "Point", "coordinates": [ 333112.738, 6131111.475 ] } },
{ "type": "Feature", "properties": { "channel": "skirvyte", "chainage_m": 1400.0, "rivbed": -3.0 }, "geometry": { "type": "Point", "coordinates": [ 332977.618, 6131077.721 ] } },
{ "type": "Feature", "properties": { "channel": "skirvyte", "chainage_m": 1518.2, "rivbed": -3.016 }, "geometry": { "type": "Point", "coordinates": [ 332860.726, 6131060.504 ] } },
{ "type": "Feature", "properties": { "channel": "skirvyte", "chainage_m": 1636.3, "rivbed": -3.797 }, "geometry": { "type": "Point", "coordinates": [ 332743.833, 6131043.287 ] } },
{ "type": "Feature", "properties": { "channel": "skirvyte", "chainage_m": 1786.4, "rivbed": -5.117 }, "geometry": { "type": "Point", "coordinates": [ 332595.134, 6131022.868 ] } },
{ "type": "Feature", "properties": { "channel": "skirvyte", "chainage_m": 1936.5, "rivbed": -5.164 }, "geometry": { "type": "Point", "coordinates": [ 332446.436, 6131002.449 ] } },
{ "type": "Feature", "properties": { "channel": "skirvyte", "chainage_m": 2062.8, "rivbed": -4.031 }, "geometry": { "type": "Point", "coordinates": [ 332322.422, 6130978.601 ] } },
{ "type": "Feature", "properties": { "channel": "skirvyte", "chainage_m": 2167.5, "rivbed": -3.594 }, "geometry": { "type": "Point", "coordinates": [ 332220.638, 6130953.89 ] } },
{ "type": "Feature", "properties": { "channel": "skirvyte", "chainage_m": 2232.0, "rivbed": -3.516 }, "geometry": { "type": "Point", "coordinates": [ 332160.279, 6130931.209 ] } },
{ "type": "Feature", "properties": { "channel": "skirvyte", "chainage_m": 2289.5, "rivbed": -3.164 }, "geometry": { "type": "Point", "coordinates": [ 332108.055, 6130907.217 ] } },
{ "type": "Feature", "properties": { "channel": "skirvyte", "chainage_m": 2333.0, "rivbed": -3.094 }, "geometry": { "type": "Point", "coordinates": [ 332069.356, 6130887.248 ] } },
{ "type": "Feature", "properties": { "channel": "skirvyte", "chainage_m": 2383.3, "rivbed": -3.0 }, "geometry": { "type": "Point", "coordinates": [ 332030.85, 6130854.959 ] } },
{ "type": "Feature", "properties": { "channel": "skirvyte", "chainage_m": 2451.8, "rivbed": -3.0 }, "geometry": { "type": "Point", "coordinates": [ 331981.607, 6130807.367 ] } },
{ "type": "Feature", "properties": { "channel": "skirvyte", "chainage_m": 2606.8, "rivbed": -3.0 }, "geometry": { "type": "Point", "coordinates": [ 331880.909, 6130689.538 ] } },
{ "type": "Feature", "properties": { "channel": "skirvyte", "chainage_m": 2711.4, "rivbed": -3.0 }, "geometry": { "type": "Point", "coordinates": [ 331813.185, 6130609.724 ] } },
{ "type": "Feature", "properties": { "channel": "skirvyte", "chainage_m": 2816.1, "rivbed": -3.0 }, "geometry": { "type": "Point", "coordinates": [ 331745.461, 6130529.91 ] } },
{ "type": "Feature", "properties": { "channel": "skirvyte", "chainage_m": 2886.2, "rivbed": -3.0 }, "geometry": { "type": "Point", "coordinates": [ 331694.618, 6130481.736 ] } },
{ "type": "Feature", "properties": { "channel": "skirvyte", "chainage_m": 3064.3, "rivbed": -4.758 }, "geometry": { "type": "Point", "coordinates": [ 331558.396, 6130366.947 ] } },
{ "type": "Feature", "properties": { "channel": "skirvyte", "chainage_m": 3218.1, "rivbed": -4.594 }, "geometry": { "type": "Point", "coordinates": [ 331436.301, 6130273.407 ] } },
{ "type": "Feature", "properties": { "channel": "skirvyte", "chainage_m": 3350.9, "rivbed": -4.781 }, "geometry": { "type": "Point", "coordinates": [ 331336.116, 6130186.256 ] } },
{ "type": "Feature", "properties": { "channel": "skirvyte", "chainage_m": 3516.9, "rivbed": -5.648 }, "geometry": { "type": "Point", "coordinates": [ 331183.244, 6130121.552 ] } },
{ "type": "Feature", "properties": { "channel": "skirvyte", "chainage_m": 3674.3, "rivbed": -5.094 }, "geometry": { "type": "Point", "coordinates": [ 331028.903, 6130090.919 ] } },
{ "type": "Feature", "properties": { "channel": "skirvyte", "chainage_m": 3831.6, "rivbed": -4.258 }, "geometry": { "type": "Point", "coordinates": [ 330874.562, 6130060.287 ] } },
{ "type": "Feature", "properties": { "channel": "skirvyte", "chainage_m": 3922.7, "rivbed": -4.602 }, "geometry": { "type": "Point", "coordinates": [ 330790.514, 6130025.124 ] } },
{ "type": "Feature", "properties": { "channel": "skirvyte", "chainage_m": 4071.3, "rivbed": -3.398 }, "geometry": { "type": "Point", "coordinates": [ 330649.878, 6129977.041 ] } },
{ "type": "Feature", "properties": { "channel": "skirvyte", "chainage_m": 4091.8, "rivbed": -3.297 }, "geometry": { "type": "Point", "coordinates": [ 330632.554, 6129966.16 ] } },
{ "type": "Feature", "properties": { "channel": "skirvyte", "chainage_m": 4158.4, "rivbed": -3.375 }, "geometry": { "type": "Point", "coordinates": [ 330575.018, 6129932.572 ] } },
{ "type": "Feature", "properties": { "channel": "skirvyte", "chainage_m": 4230.8, "rivbed": -3.438 }, "geometry": { "type": "Point", "coordinates": [ 330514.155, 6129893.362 ] } },
{ "type": "Feature", "properties": { "channel": "skirvyte", "chainage_m": 4264.0, "rivbed": -3.461 }, "geometry": { "type": "Point", "coordinates": [ 330491.609, 6129869.065 ] } },
{ "type": "Feature", "properties": { "channel": "skirvyte", "chainage_m": 4316.4, "rivbed": -3.391 }, "geometry": { "type": "Point", "coordinates": [ 330454.019, 6129832.497 ] } },
{ "type": "Feature", "properties": { "channel": "skirvyte", "chainage_m": 4412.3, "rivbed": -3.609 }, "geometry": { "type": "Point", "coordinates": [ 330395.277, 6129756.737 ] } },
{ "type": "Feature", "properties": { "channel": "skirvyte", "chainage_m": 4505.3, "rivbed": -3.852 }, "geometry": { "type": "Point", "coordinates": [ 330339.063, 6129682.575 ] } },
{ "type": "Feature", "properties": { "channel": "skirvyte", "chainage_m": 4637.0, "rivbed": -4.43 }, "geometry": { "type": "Point", "coordinates": [ 330260.319, 6129577.093 ] } },
{ "type": "Feature", "properties": { "channel": "skirvyte", "chainage_m": 4768.6, "rivbed": -6.062 }, "geometry": { "type": "Point", "coordinates": [ 330181.576, 6129471.61 ] } },
{ "type": "Feature", "properties": { "channel": "skirvyte", "chainage_m": 4904.1, "rivbed": -6.93 }, "geometry": { "type": "Point", "coordinates": [ 330103.137, 6129361.108 ] } },
{ "type": "Feature", "properties": { "channel": "skirvyte", "chainage_m": 4952.3, "rivbed": -6.953 }, "geometry": { "type": "Point", "coordinates": [ 330078.12, 6129319.96 ] } },
{ "type": "Feature", "properties": { "channel": "skirvyte", "chainage_m": 4980.9, "rivbed": -7.039 }, "geometry": { "type": "Point", "coordinates": [ 330056.89, 6129300.74 ] } },
{ "type": "Feature", "properties": { "channel": "skirvyte", "chainage_m": 5052.3, "rivbed": -7.062 }, "geometry": { "type": "Point", "coordinates": [ 330000.354, 6129257.092 ] } },
{ "type": "Feature", "properties": { "channel": "skirvyte", "chainage_m": 5191.5, "rivbed": -6.398 }, "geometry": { "type": "Point", "coordinates": [ 329898.434, 6129162.271 ] } },
{ "type": "Feature", "properties": { "channel": "skirvyte", "chainage_m": 5309.6, "rivbed": -5.812 }, "geometry": { "type": "Point", "coordinates": [ 329818.947, 6129074.958 ] } },
{ "type": "Feature", "properties": { "channel": "skirvyte", "chainage_m": 5497.3, "rivbed": -4.812 }, "geometry": { "type": "Point", "coordinates": [ 329705.357, 6128925.555 ] } },
{ "type": "Feature", "properties": { "channel": "skirvyte", "chainage_m": 5563.3, "rivbed": -4.992 }, "geometry": { "type": "Point", "coordinates": [ 329653.511, 6128884.638 ] } },
{ "type": "Feature", "properties": { "channel": "skirvyte", "chainage_m": 5647.4, "rivbed": -5.117 }, "geometry": { "type": "Point", "coordinates": [ 329585.416, 6128835.333 ] } },
{ "type": "Feature", "properties": { "channel": "skirvyte", "chainage_m": 5758.1, "rivbed": -5.305 }, "geometry": { "type": "Point", "coordinates": [ 329490.996, 6128777.645 ] } },
{ "type": "Feature", "properties": { "channel": "skirvyte", "chainage_m": 5868.7, "rivbed": -5.109 }, "geometry": { "type": "Point", "coordinates": [ 329396.576, 6128719.956 ] } },
{ "type": "Feature", "properties": { "channel": "skirvyte", "chainage_m": 5904.7, "rivbed": -5.023 }, "geometry": { "type": "Point", "coordinates": [ 329364.492, 6128703.565 ] } },
{ "type": "Feature", "properties": { "channel": "skirvyte", "chainage_m": 6046.1, "rivbed": -4.625 }, "geometry": { "type": "Point", "coordinates": [ 329238.874, 6128638.754 ] } },
{ "type": "Feature", "properties": { "channel": "skirvyte", "chainage_m": 6154.7, "rivbed": -4.336 }, "geometry": { "type": "Point", "coordinates": [ 329144.057, 6128585.868 ] } },
{ "type": "Feature", "properties": { "channel": "skirvyte", "chainage_m": 6263.2, "rivbed": -3.945 }, "geometry": { "type": "Point", "coordinates": [ 329049.241, 6128532.982 ] } },
{ "type": "Feature", "properties": { "channel": "skirvyte", "chainage_m": 6386.3, "rivbed": -4.273 }, "geometry": { "type": "Point", "coordinates": [ 328940.664, 6128474.987 ] } },
{ "type": "Feature", "properties": { "channel": "skirvyte", "chainage_m": 6420.5, "rivbed": -4.367 }, "geometry": { "type": "Point", "coordinates": [ 328909.973, 6128459.826 ] } },
{ "type": "Feature", "properties": { "channel": "skirvyte", "chainage_m": 6451.1, "rivbed": -4.438 }, "geometry": { "type": "Point", "coordinates": [ 328884.066, 6128443.655 ] } },
{ "type": "Feature", "properties": { "channel": "skirvyte", "chainage_m": 6480.7, "rivbed": -4.484 }, "geometry": { "type": "Point", "coordinates": [ 328860.233, 6128426.146 ] } },
{ "type": "Feature", "properties": { "channel": "skirvyte", "chainage_m": 6520.2, "rivbed": -4.609 }, "geometry": { "type": "Point", "coordinates": [ 328829.162, 6128401.663 ] } },
{ "type": "Feature", "properties": { "channel": "skirvyte", "chainage_m": 6569.0, "rivbed": -4.609 }, "geometry": { "type": "Point", "coordinates": [ 328793.842, 6128368.039 ] } },
{ "type": "Feature", "properties": { "channel": "skirvyte", "chainage_m": 6634.8, "rivbed": -4.633 }, "geometry": { "type": "Point", "coordinates": [ 328762.664, 6128310.031 ] } },
{ "type": "Feature", "properties": { "channel": "skirvyte", "chainage_m": 6706.9, "rivbed": -4.766 }, "geometry": { "type": "Point", "coordinates": [ 328733.608, 6128244.074 ] } },
{ "type": "Feature", "properties": { "channel": "skirvyte", "chainage_m": 6849.3, "rivbed": -4.789 }, "geometry": { "type": "Point", "coordinates": [ 328688.34, 6128109.113 ] } },
{ "type": "Feature", "properties": { "channel": "skirvyte", "chainage_m": 6956.2, "rivbed": -4.82 }, "geometry": { "type": "Point", "coordinates": [ 328655.624, 6128007.306 ] } },
{ "type": "Feature", "properties": { "channel": "skirvyte", "chainage_m": 7016.2, "rivbed": -4.82 }, "geometry": { "type": "Point", "coordinates": [ 328632.031, 6127952.181 ] } },
{ "type": "Feature", "properties": { "channel": "skirvyte", "chainage_m": 7073.3, "rivbed": -4.812 }, "geometry": { "type": "Point", "coordinates": [ 328602.342, 6127903.354 ] } },
{ "type": "Feature", "properties": { "channel": "skirvyte", "chainage_m": 7148.1, "rivbed": -4.812 }, "geometry": { "type": "Point", "coordinates": [ 328561.657, 6127840.578 ] } },
{ "type": "Feature", "properties": { "channel": "skirvyte", "chainage_m": 7227.4, "rivbed": -4.828 }, "geometry": { "type": "Point", "coordinates": [ 328513.293, 6127777.755 ] } },
{ "type": "Feature", "properties": { "channel": "skirvyte", "chainage_m": 7315.3, "rivbed": -5.352 }, "geometry": { "type": "Point", "coordinates": [ 328457.58, 6127709.778 ] } },
{ "type": "Feature", "properties": { "channel": "skirvyte", "chainage_m": 7438.2, "rivbed": -4.867 }, "geometry": { "type": "Point", "coordinates": [ 328365.17, 6127628.716 ] } },
{ "type": "Feature", "properties": { "channel": "skirvyte", "chainage_m": 7593.2, "rivbed": -4.711 }, "geometry": { "type": "Point", "coordinates": [ 328240.472, 6127536.628 ] } },
{ "type": "Feature", "properties": { "channel": "skirvyte", "chainage_m": 7733.8, "rivbed": -4.727 }, "geometry": { "type": "Point", "coordinates": [ 328128.995, 6127450.917 ] } },
{ "type": "Feature", "properties": { "channel": "skirvyte", "chainage_m": 7883.9, "rivbed": -4.938 }, "geometry": { "type": "Point", "coordinates": [ 328004.139, 6127367.622 ] } },
{ "type": "Feature", "properties": { "channel": "skirvyte", "chainage_m": 7952.5, "rivbed": -4.938 }, "geometry": { "type": "Point", "coordinates": [ 327941.811, 6127338.931 ] } },
{ "type": "Feature", "properties": { "channel": "skirvyte", "chainage_m": 8012.0, "rivbed": -4.852 }, "geometry": { "type": "Point", "coordinates": [ 327886.12, 6127318.073 ] } },
{ "type": "Feature", "properties": { "channel": "skirvyte", "chainage_m": 8170.7, "rivbed": -4.797 }, "geometry": { "type": "Point", "coordinates": [ 327732.408, 6127278.83 ] } },
{ "type": "Feature", "properties": { "channel": "skirvyte", "chainage_m": 8276.3, "rivbed": -4.672 }, "geometry": { "type": "Point", "coordinates": [ 327628.108, 6127262.339 ] } },
{ "type": "Feature", "properties": { "channel": "skirvyte", "chainage_m": 8420.2, "rivbed": -4.531 }, "geometry": { "type": "Point", "coordinates": [ 327489.232, 6127224.655 ] } },
{ "type": "Feature", "properties": { "channel": "skirvyte", "chainage_m": 8477.6, "rivbed": -4.625 }, "geometry": { "type": "Point", "coordinates": [ 327434.653, 6127206.779 ] } },
{ "type": "Feature", "properties": { "channel": "skirvyte", "chainage_m": 8599.1, "rivbed": -5.031 }, "geometry": { "type": "Point", "coordinates": [ 327320.77, 6127164.516 ] } },
{ "type": "Feature", "properties": { "channel": "skirvyte", "chainage_m": 8691.3, "rivbed": -5.273 }, "geometry": { "type": "Point", "coordinates": [ 327239.71, 6127120.396 ] } },
{ "type": "Feature", "properties": { "channel": "skirvyte", "chainage_m": 8741.5, "rivbed": -5.281 }, "geometry": { "type": "Point", "coordinates": [ 327194.821, 6127097.922 ] } },
{ "type": "Feature", "properties": { "channel": "skirvyte", "chainage_m": 8776.8, "rivbed": -5.422 }, "geometry": { "type": "Point", "coordinates": [ 327164.627, 6127079.744 ] } },
{ "type": "Feature", "properties": { "channel": "skirvyte", "chainage_m": 8874.9, "rivbed": -5.367 }, "geometry": { "type": "Point", "coordinates": [ 327084.218, 6127023.533 ] } },
{ "type": "Feature", "properties": { "channel": "skirvyte", "chainage_m": 8963.7, "rivbed": -5.273 }, "geometry": { "type": "Point", "coordinates": [ 327022.088, 6126960.103 ] } },
{ "type": "Feature", "properties": { "channel": "skirvyte", "chainage_m": 9022.8, "rivbed": -5.352 }, "geometry": { "type": "Point", "coordinates": [ 326976.202, 6126922.916 ] } },
{ "type": "Feature", "properties": { "channel": "skirvyte", "chainage_m": 9083.6, "rivbed": -5.539 }, "geometry": { "type": "Point", "coordinates": [ 326922.991, 6126893.448 ] } },
{ "type": "Feature", "properties": { "channel": "skirvyte", "chainage_m": 9155.8, "rivbed": -5.688 }, "geometry": { "type": "Point", "coordinates": [ 326860.545, 6126857.232 ] } },
{ "type": "Feature", "properties": { "channel": "skirvyte", "chainage_m": 9263.9, "rivbed": -4.516 }, "geometry": { "type": "Point", "coordinates": [ 326766.408, 6126803.926 ] } },
{ "type": "Feature", "properties": { "channel": "skirvyte", "chainage_m": 9392.5, "rivbed": -4.906 }, "geometry": { "type": "Point", "coordinates": [ 326648.437, 6126752.958 ] } },
{ "type": "Feature", "properties": { "channel": "skirvyte", "chainage_m": 9475.4, "rivbed": -4.852 }, "geometry": { "type": "Point", "coordinates": [ 326571.817, 6126721.178 ] } },
{ "type": "Feature", "properties": { "channel": "skirvyte", "chainage_m": 9538.9, "rivbed": -4.617 }, "geometry": { "type": "Point", "coordinates": [ 326514.906, 6126693.119 ] } },
{ "type": "Feature", "properties": { "channel": "skirvyte", "chainage_m": 9575.1, "rivbed": -4.352 }, "geometry": { "type": "Point", "coordinates": [ 326482.369, 6126677.077 ] } }
]
}
