{
"type": "FeatureCollection",
"name": "channels",
"crs": { "type": "name", "properties": { "name": "urn:ogc:def:crs:EPSG::3346" } },
"features": [
{ "type": "Feature", "properties": { "name": "strait", "rivwth": 400, "rivbed": -12.0, "source": "fixed" }, "geometry": { "type": "LineString", "coordinates": [ [ 320502.508099349157419, 6168706.84040573053062 ], [ 319381.38695700786775, 6172096.628239810466766 ], [ 318890.907786844298244, 6175460.583374684676528 ], [ 317773.271547280368395, 6178850.865960898809135 ], [ 317238.56722233898472, 6181102.442246226593852 ] ] } },
{ "type": "Feature", "properties": { "name": "atmata", "rivwth": 200, "rivbed": -4.0, "source": "fallback" }, "geometry": { "type": "LineString", "coordinates": [ [ 333007.546727467910387, 6132553.985154571942985 ], [ 330511.04080381069798, 6133763.249961107037961 ], [ 328015.848411960178055, 6134973.949925416149199 ], [ 325543.947882285632659, 6136742.395214278250933 ] ] } },
{ "type": "Feature", "properties": { "name": "skirvyte", "rivwth": 150, "rivbed": -3.0, "source": "fallback" }, "geometry": { "type": "LineString", "coordinates": [ [ 333007.546727467910387, 6132553.985154571942985 ], [ 331039.426232382131275, 6130957.347015837207437 ], [ 329091.377072324976325, 6129917.877976765856147 ], [ 327164.111051764630247, 6129435.561846393160522 ] ] } }
]
}
