{
"type": "FeatureCollection",
"name": "dis_points",
"crs": { "type": "name", "properties": { "name": "urn:ogc:def:crs:EPSG::3346" } },
"features": [
{ "type": "Feature", "properties": { "index": 1, "name": "Nemunas_Rusne" }, "geometry": { "type": "Point", "coordinates": [ 333642.343027982860804, 6132530.057857944630086 ] } },
{ "type": "Feature", "properties": { "index": 2, "name": "Minija_mouth" }, "geometry": { "type": "Point", "coordinates": [ 325917.772009017877281, 6146199.731752478517592 ] } }
]
}
