{
"type": "FeatureCollection",
"name": "stations",
"crs": { "type": "name", "properties": { "name": "urn:ogc:def:crs:EPSG::3346" } },
"features": [
{ "type": "Feature", "properties": { "name": "Klaipeda" }, "geometry": { "type": "Point", "coordinates": [ 317168.465127572009806, 6179433.511892329901457 ] } },
{ "type": "Feature", "properties": { "name": "Juodkrante" }, "geometry": { "type": "Point", "coordinates": [ 317659.658801598183345, 6161022.782999427989125 ] } },
{ "type": "Feature", "properties": { "name": "Nida" }, "geometry": { "type": "Point", "coordinates": [ 309853.120414215489291, 6133823.520731952041388 ] } },
{ "type": "Feature", "properties": { "name": "Vente" }, "geometry": { "type": "Point", "coordinates": [ 321761.158719613216817, 6137450.67347963526845 ] } },
{ "type": "Feature", "properties": { "name": "Uostadvaris" }, "geometry": { "type": "Point", "coordinates": [ 324887.677568567043636, 6136211.187707057222724 ] } },
{ "type": "Feature", "properties": { "name": "Rusne" }, "geometry": { "type": "Point", "coordinates": [ 333007.546727467910387, 6132553.985154571942985 ] } },
{ "type": "Feature", "properties": { "name": "Silute" }, "geometry": { "type": "Point", "coordinates": [ 340191.767641646438278, 6137859.266171667724848 ] } },
{ "type": "Feature", "properties": { "name": "Atmata_mouth" }, "geometry": { "type": "Point", "coordinates": [ 324275.52429414074868, 6136792.689549126662314 ] } },
{ "type": "Feature", "properties": { "name": "Zalivino_RU" }, "geometry": { "type": "Point", "coordinates": [ 311189.655592917348258, 6097766.954334826208651 ] } }
]
}
